store_number,store_name,address,city,zip_code,store_location,county_number,county
3723,J D Spirits Liquor,1023  9TH ST,ONAWA,51040,POINT (-96.095845 42.025841),67,Monona
3731,Wal-Mart 1241 / Davenport,5811 ELMORE AVE,DAVENPORT,52807,POINT (-90.525525 41.580212),82,Scott
4829,Central City 2,1501 MICHIGAN AVE,DES MOINES,50314,POINT (-93.613739 41.60572),77,Polk
2593,Hy-Vee Food Store / Carroll,905 US HIGHWAY 30 WEST,CARROLL,51401,POINT (-94.853591 42.064155),14,Carroll
3869,Bootleggin' Barzini's Fin,412  1ST AVE,CORALVILLE,52241,POINT (-91.565517 41.672672),52,Johnson
4715,Walgreens #06678 / West Des Moines,1999 GRAND AVE,WEST DES MOINES,50265,POINT (-93.731469 41.571398),77,Polk
4103,Fareway Stores #093 / Ames,3619 STANGE RD,AMES,50010,POINT (-93.645008 42.057108),85,Story
2648,Hy-Vee #4 / WDM,555 S 51ST ST,WEST DES MOINES,50265,POINT (-93.773557 41.561197),77,Polk
4409,Kum & Go #90 / BOONE,1704 S STORY ST,BOONE,50036,POINT (-93.879597 42.037102),08,Boone
2663,Hy-Vee / Urbandale,8701 DOUGLAS,URBANDALE,50322,POINT (-93.739105 41.629364),77,Polk
3352,Cork 'n' Bottle,900 EAST MAIN ST.,MANCHESTER,52057,POINT (-91.445038 42.484073),28,Delaware
2638,Hy-Vee Wine and Spirits / Cedar Fall,5925 UNIVERSITY AVE STE A,CEDAR FALLS,50613,POINT (-92.429331 42.512766),07,Black Hawk
3477,Sam's Club 6472 / Council Bluffs,3221 MANAWA CENTRE DR,COUNCIL BLUFFS,51501,POINT (-95.847163 41.225208),78,Pottawattamie
3789,Wal-Mart 1393 / Oskaloosa,2203 A AVENUE WEST,OSKALOOSA,52577,POINT (-92.669924 41.298516),62,Mahaska
3385,Sam's Club 8162 / Cedar Rapids,2605 BLAIRS FERRY RD NE,CEDAR RAPIDS,52402,POINT (-91.67969 42.031819),57,Linn
3495,Great Pastimes,228 N MAIN ST,MONTICELLO,52310,POINT (-91.183413 42.24013200000001),53,Jones
2487,Anamosa Family Foods,402 EAST MAIN,ANAMOSA,52205,POINT (-91.281344 42.108275),53,Jones
4148,Fareway Stores #479 / Independence,1400 3RD AVE SE,INDEPENDENCE,50644,POINT (-91.890284 42.455804),10,Buchanan
3722,Wal-Mart 1361 / Sioux City,3400 SINGING HILLS BLVD,SIOUX CITY,51106,POINT (-96.36432 42.43609000000001),97,Woodbury
4838,Casey's General Store #2448 / Ogden,"102, W VETERANS DR",OGDEN,50212,POINT (-94.028392 42.03201),08,Boone
2543,Hy-Vee Food Store #1 / Ottumwa,1025 NORTH QUINCY AVE,OTTUWMA,52501,POINT (-92.438463 41.01558),90,Wapello
3354,Sam's Club 8238 / Davenport,3845 ELMORE AVE.,DAVENPORT,52807,POINT (-90.527081 41.559731),82,Scott
2528,Hy-Vee Food Store #3 / Des Moines,3221 SE 14TH ST,DES MOINES,50315,,77,Polk
3732,North Scott Foods,425 E LECLAIRE RD,ELDRIDGE,52748,POINT (-90.577311 41.654695000000004),82,Scott
3670,Wal-Mart 2827 / Coralville,2801 COMMERCE DR,CORALVILLE,52241,POINT (-91.610774 41.695806),52,Johnson
4827,Sauce,108 E COLLEGE ST,IOWA CITY,52240,POINT (-91.533522 41.658979),52,Johnson
4619,Smokin' Joe's #3 Tobacco and Liquor,1737 AVE H,FORT MADISON,52627,POINT (-91.32982400000002 40.63021),56,Lee
4719,Walgreens #06677 / West Des Moines,4900 MILLS CIVIC PKWY,WEST DES MOINES,50265,POINT (-93.770018 41.559128),77,Polk
2633,Hy-Vee #3 / BDI / Des Moines,3221 SE 14TH ST,DES MOINES,50320,POINT (-93.596754 41.554101),77,Polk
2662,Hy-Vee Wine & Spirits / Muscatine,"522 MULBERRY, SUITE A",MUSCATINE,52761,POINT (-91.04437 41.426615),70,Muscatine
2285,John's Grocery,401 EAST MARKET ST,IOWA CITY,52240,POINT (-91.529854 41.663541),52,Johnson
3524,Sam's Club 6568 / Ames,305 AIRPORT RD,AMES,50010,POINT (-93.613648 42.001123),85,Story
3814,Costco Wholesale #788,7205 MILLS CIVIC PKWY,WEST DES MOINES,50266,POINT (-93.806489 41.561342),25,Dallas
4402,KUM & GO #80 / RIVERSIDE,1178 ENTERPRISE DR,RIVERSIDE,52327,POINT (-91.555044 41.486572),92,Washington
4050,Five Star Snacks and Liquor,437 SULLIVAN,WATERLOO,50701,POINT (-92.355915 42.487326),07,Black Hawk
3691,Target Store T-1791 / Urbandale,11148 PLUM DR,URBANDALE,50322,POINT (-93.769776 41.646972),77,Polk
2647,Hy-Vee #7 / Cedar Rapids,5050 EDGEWOOD RD,CEDAR RAPIDS,52411,POINT (-91.701581 42.030129),57,Linn
2591,Hy-Vee Wine and Spirits / Atlantic,1602 E. 7TH ST.,ATLANTIC,50022,POINT (-94.990031 41.403856),15,Cass
4374,Kum & Go #141 / Grimes,1950 PRINCETON DR,GRIMES,50111,POINT (-93.77248500000002 41.673752),77,Polk
2565,Hy-Vee Food Store / Spencer,819 N GRAND AVE,SPENCER,51301,POINT (-95.14506 43.145897),21,Clay
3420,Sam's Club 6344 / Windsor Heights,1101  73RD STREET,WINDSOR HEIGHTS,50311,POINT (-93.718027 41.599172),77,Polk
4576,THE BOONEDOCKS,228 N HWY 71,ARNOLDS PARK,51331,POINT (-95.125928 43.370941),30,Dickinson
4769,Elma Locker and Grocery,100 GRANT ST,ELMA,50628,POINT (-92.435443 43.244311),45,Howard
3447,Sam's Club 6432 / Sioux City,4201 S. YORK ST.,SIOUX CITY,51106,POINT (-96.37082 42.43407),97,Woodbury
4907,Prime Mart,2323 MAIN ST,CEDAR FALLS,50613,POINT (-92.44586000000001 42.516198),07,Black Hawk
4677,Costco Wholesale #1111 / Coralville,2900 HEARTLAND DR,CORALVILLE,52241,POINT (-91.61494100000002 41.698028),52,Johnson
3820,"Charlie's Wine and Spirits,",507 W 19th St,SIOUX CITY,51103,POINT (-96.420193 42.510535),97,Woodbury
4300,Fareway Stores #625 / Oskaloosa,311  3RD AVE W,OSKALOOSA,52577,POINT (-92.648062 41.292614),62,Mahaska
3644,Wal-Mart 2764 / Altoona,3501  8TH ST SW,ALTOONA,50009,POINT (-93.505276 41.644195),77,Polk
4099,Chubbys Liquor,68 MONROE PO BOX 249,FLOYD,50435,,34,Floyd
3773,Benz Distributing,501 7TH AVE SE,CEDAR RAPIDS,52401,POINT (-91.659875 41.97574),57,Linn
3726,Wal-Mart 1285 / Ottumwa,1940 VENTURE DR,OTTUMWA,52501,POINT (-92.456896 41.01455),90,Wapello
4095,City Liquor And Tobacco / Waterloo,200 BROADWAY ST,WATERLOO,50703,POINT (-92.344785 42.507754),07,Black Hawk
3692,Wilkie Liquors,724  1ST ST E,MT VERNON,52314,POINT (-91.960918 41.994458),57,Linn
3494,Sam's Club 6514 / Waterloo,210 EAST TOWER PARK DR,WATERLOO,50702,POINT (-92.353103 42.456374),07,Black Hawk
2190,"Central City Liquor, Inc.",1460 2ND AVE,DES MOINES,50314,POINT (-93.619787 41.60566),77,Polk
2130,Sycamore Convenience,617 SYCAMORE,WATERLOO,50703,POINT (-92.335358 42.497854),07,Black Hawk
2650,Hy-Vee Wine and Spirits / Harlan,1808 23RD ST,HARLAN,51537,POINT (-95.339881 41.650658),83,Shelby
4731,Walgreens #05060 / Clive,12753 UNIVERSITY AVE,CLIVE,50325,POINT (-93.793613 41.600487),77,Polk
3719,Wal-Mart 0581 / Marshalltown,2802 S CENTER ST,MARSHALLTOWN,50158,POINT (-92.91231 42.012918),64,Marshall
3625,Wal-Mart 0892 / Ankeny,1002 SE NATIONAL DR,ANKENY,50021,POINT (-93.582348 41.70486400000001),77,Polk
2630,Hy-Vee Drugstore #2 / WDM,1010  60TH ST,WEST DES MOINES,50266,POINT (-93.790534 41.584979),77,Polk
4147,Fareway Stores #974 / Cedar Falls,214 N MAGNOLIA DR,CEDAR FALLS,50613,POINT (-92.474689 42.539076),07,Black Hawk
2625,Hy-Vee Wine and Spirits #2,3301 W KIMBERLY RD,DAVENPORT,52804,,82,Scott
3830,Wal-Mart 1435 / Creston,806 LAUREL ST,CRESTON,50801,POINT (-94.372786 41.047714),88,Union
3980,Wal-Mart 1721 / Iowa City,919 HWY 1 WEST,IOWA CITY,52246,POINT (-91.552125 41.646646),52,Johnson
2512,Hy-Vee Wine and Spirits / Iowa City,1720 WATERFRONT DR,IOWA CITY,52240,POINT (-91.53046300000001 41.642764),52,Johnson
2517,Hy-Vee Food Store #1 / Newton,1501 FIRST AVENUE EAST,NEWTON,50208,POINT (-93.034296 41.69916),50,Jasper
3952,Lot-A-Spirits,3780 STATE ST,BETTENDORF,52722,POINT (-90.48065 41.529655),82,Scott
3995,Barmuda Distribution,6027 University Ave STE 100,CEDAR FALLS,50613,POINT (-92.430437 42.512768),07,Black Hawk
3889,Wal-Mart 1005 / Waverly,700  29 ST SW,WAVERLY,50677,POINT (-92.478899 42.70032100000001),09,Bremer
4615,North Side Liquor & Grocery,1303 NORTH FEDERAL AVE,MASON CITY,50401,POINT (-93.201061 43.163663),17,Cerro Gordo
4346,Roy's Foodland,105 PEARL ST,SHELLSBURG,52332,POINT (-91.869285 42.094155),06,Benton
3896,Smokin' Joe's #18 Tobacco and Liquor,1901 BROADWAY ST,IOWA CITY,52240,POINT (-91.520308 41.641383),52,Johnson
3622,Wal-Mart 1415 / Spirit Lake,2600 HWY 71,SPIRIT LAKE,51360,POINT (-95.126535 43.416452),30,Dickinson
2106,Hillstreet News and Tobacco,2217 COLLEGE,CEDAR FALLS,50613,POINT (-92.455796 42.517182),07,Black Hawk
2642,Hy-Vee Wine and Spirits / Pella,512 E OSKALOOSA,PELLA,50219,POINT (-92.899277 41.396961000000005),63,Marion
3806,Target Store T-1901 / WDM,5405 MILLS CIVIC PKWY,WEST DES MOINES,50266,POINT (-93.779823 41.559272),77,Polk
3390,Okoboji Avenue Liquor,1610 OKOBOJI AVENUE,MILFORD,51351,POINT (-95.149955 43.331525),30,Dickinson
4665,Casey's General Store #2896 / Ankeny,2601 SE CREEKVIEW DR,ANKENY,50021,POINT (-93.57152 41.703813),77,Polk
2597,Hy-Vee Food Store / Cherokee,1300 N. SECOND,CHEROKEE,51012,POINT (-95.552585 42.765259),18,Cherokee
4312,I-80 Liquor / Council Bluffs,2411 S 24TH ST #1,COUNCIL BLUFFS,51501,POINT (-95.8792 41.238092),78,Pottawattamie
3944,Sam's Club 4973 / Dubuque,4400 ASBURY RD,DUBUQUE,52002,POINT (-90.737821 42.515289),31,Dubuque
2248,Ingersoll Liquor and Beverage,3500 INGERSOLL AVE,DES MOINES,50312,POINT (-93.664182 41.586319),77,Polk
3549,Quicker Liquor Store,1414 48TH ST,FORT MADISON,52627,POINT (-91.373211 40.62422600000001),56,Lee
2522,Hy-Vee Wine and Spirits / Spirit Lak,HWY 9 & 71,SPIRIT LAKE,51360,,30,Dickinson
2548,Hy-Vee Food Store / Altoona,100 8TH STREET SW,ALTOONA,50009,POINT (-93.465301 41.644041),77,Polk
2635,Hy-Vee #4 / Davenport,4064 E 53RD ST,DAVENPORT,52807,POINT (-90.513769 41.574973),82,Scott
4169,Super Quick 2 / Hubbell,1824 HUBBELL AVE,DES MOINES,50317,,77,Polk
2962,Dahl's / Johnston,5440 NW 86TH ST,JOHNSTON,50131,POINT (-93.736517 41.659057),77,Polk
2605,Hy-Vee Drugstore #5 / Cedar Rapids,2001 BLAIRS FERRY ROAD NE,CEDAR RAPIDS,52402,POINT (-91.668909 42.034799),57,Linn
4543,Casey's General Store #2924 / Marion,1100 EAGLE VIEW DR,MARION,52302,POINT (-91.553462 42.037621),57,Linn
2616,Hy-Vee Food and Drug / Clinton,901 SOUTH 4TH ST,CLINTON,52732,POINT (-90.193204 41.836268000000004),23,Clinton
4733,Walgreens #03773 / Urbandale,4600 86th ST,URBANDALE,50322,POINT (-93.736543 41.644387),77,Polk
3994,Great Spirits Wine & Liquor Co.,72 NORTH HWY 71,ARNOLDS PARK,51331,POINT (-95.127395 43.368989000000006),30,Dickinson
4635,Kwik Shop #563 / Cedar Rapids,1001 1st AVE SW,CEDAR RAPIDS,52405,POINT (-91.684707 41.972397),57,Linn
3713,Wal-Mart 0810 / Mason City,4151  4TH ST SW,MASON CITY,50401,POINT (-93.261648 43.148239),17,Cerro Gordo
4700,J & C Grocery / Allison,"306, N MAIN",ALLISON,50602,POINT (-92.795137 42.753203),12,Butler
2560,Hy-Vee Food Store / Marion,3600 BUSINESS HWY 151 EAST,MARION,52302,,57,Linn
4231,Fareway Stores #719 / Le Mars,115 PLYMOUTH ST NE,LE MARS,51031,POINT (-96.164909 42.793066),75,Plymouth
2514,Hy-Vee Drugstore / Marion,2790 7TH AVENUE,MARION,50129,POINT (-91.582229 42.033186),57,Linn
2506,Hy-Vee #1044 / Burlington,3140 AGENCY,BURLINGTON,52601,POINT (-91.136655 40.814666),29,Des Moines
3663,Wal-Mart 1496 / Waterloo,1334 FLAMMANG DR,WATERLOO,50702,POINT (-92.330801 42.460238),07,Black Hawk
2629,Hy-Vee Food Store #2 / Council Bluff,1745 MADISON AVE,COUNCIL BLUFFS,51503,POINT (-95.825137 41.242732),78,Pottawattamie
9002,Mississippi River Distillery,303 N CODY RD,LECLAIRE,52753,POINT (-90.34359400000001 41.599733),82,Scott
3629,Wal-Mart 1965 / Council Bluffs,3200 MANAWA DR,COUNCIL BLUFFS,51503,,78,Pottawattamie
2544,Hy-Vee Food Store / Marshalltown,802 SOUTH CENTER,MARSHALLTOWN,50158,POINT (-92.912817 42.039205),64,Marshall
3981,Wal-Mart 1152 / Sioux Center,255 16TH ST SW,SIOUX CENTER,51250,POINT (-96.179835 43.060881),84,Sioux
4730,Walgreens #05944 / Johnston,6200 MERLE HAY RD,JOHNSTON,50131,POINT (-93.697684 41.673355),77,Polk
2521,Hy-Vee Food and Drug / Grand / WDM,1990 GRAND AVENUE,WEST DES MOINES,50265,POINT (-93.73162 41.571127),77,Polk
2619,Hy-Vee Wine and Spirits / WDM,1725  74TH ST,WEST DES MOINES,50266,POINT (-93.808855 41.598515),77,Polk
3833,Wal-Mart 3394 / Atlantic,1905 EAST 7TH ST,ATLANTIC,50022,POINT (-94.98571 41.403853),15,Cass
3973,Mmdg Spirits / Ames,126A WELCH AVE,AMES,50014,POINT (-93.650131 42.021789),85,Story
4019,Wal-Mart 1506 / Manchester,1220 WEST MAIN,MANCHESTER,52057,,28,Delaware
2603,Hy-Vee Wine and Spirits / Bettendorf,2890 DEVILS GLEN ROAD,BETTENDORF,52722,POINT (-90.483701 41.552338),82,Scott
4744,Walgreens #03875 / Cedar Rapids,2821 1ST AVE SE,CEDAR RAPIDS,52402,POINT (-91.634824 42.005508),57,Linn
3443,Super Saver Iv,1141 N BROADWAY,COUNCIL BLUFFS,51503,POINT (-95.836515 41.270824),78,Pottawattamie
4129,Cyclone Liquors,626 LINCOLN WAY,AMES,50010,POINT (-93.618911 42.022854),85,Story
3749,Wal-Mart 1526 / Storm Lake,1831 LAKE AVE NW,STORM LAKE,50588,POINT (-95.200739 42.663904),11,Buena Vista
3790,Wal-Mart 0784 / Mt Pleasan,1045 N GRAND AVE,MT PLEASANT,52641,POINT (-91.539034 40.978416),44,Henry
3565,Hartig Drug Store #10,701 MORMON TREK BLVD,IOWA CITY,52246,POINT (-91.574025 41.651984),52,Johnson
4260,Fareway Stores #699 / Osceola,215 S MAIN ST,OSCEOLA,50213,POINT (-93.765695 41.032474),20,Clarke
4234,Fareway Stores #788 / Spencer,104 E EIGHTH ST,SPENCER,51301,POINT (-95.143388 43.145797),21,Clay
2561,Hy-Vee Food Store / Fleur / DSM,4605 FLEUR DRIVE,DES MOINES,50321,POINT (-93.64494300000001 41.542748),77,Polk
4395,KUM & GO #133 / ELLSWORTH,1111 IA HIGHWAY 175,ELLSWORTH,50075,POINT (-93.572941 42.309754),40,Hamilton
3949,Wal-Mart 0751 / Pella,1650 WASHINGTON ST,PELLA,50219,POINT (-92.933676 41.410379),63,Marion
4266,Wal-Mart 1683 / Shenandoah,705 S FREMONT,SHENANDOAH,51601,POINT (-95.385114 40.760282),73,Page
2502,Hy-Vee Wine and Spirits / Ankeny,410 NORTH ANKENY BLVD,ANKENY,50021,,77,Polk
4797,Walgreens #05362 / Des Moines,1330 E UNIVERSITY AVE,DES MOINES,50316,POINT (-93.601331 41.600612),77,Polk
3562,Wal-Mart 0797 / W Burlington,324 WEST AGENCY RD,WEST BURLINGTON,52655,POINT (-91.158407 40.813125),29,Des Moines
2595,Hy-Vee Wine and Spirits / Denison,"1620  4TH AVE, SOUTH",DENISON,51442,POINT (-95.348601 42.012395),24,Crawford
3838,Schnucks / Bettendorf,858 MIDDLE RD,BETTENDORF,52722,POINT (-90.520013 41.539421),48,Iowa
2835,CVS Pharmacy #8538 / Cedar Falls,2302 WEST FIRST ST,CEDAR FALLS,50613,POINT (-92.472778 42.539874),07,Black Hawk
4092,Fareway Stores #077 / Norwalk,1711 SUNSET DR,NORWALK,50211,POINT (-93.675528 41.483259),91,Warren
3563,Wal-Mart 0559 / Muscatine,3003 NORTH HWY 61,MUSCATINE,52761,POINT (-91.025913 41.45529),70,Muscatine
4194,Fareway Stores #848 / Newton,120 N 3RD AVE E,NEWTON,50208,POINT (-93.052657 41.701453),50,Jasper
2510,Hy-Vee Drugstore #3 / Cedar Rapids,2405 MT VERNON RD SE,CEDAR RAPIDS,52403,POINT (-91.632647 41.976952),57,Linn
4126,Sam's Mainstreet Market / Solon,123 E MAIN ST,SOLON,52333,POINT (-91.494611 41.807199),52,Johnson
2191,Keokuk Spirits,1013 MAIN,KEOKUK,52632,POINT (-91.387797 40.400038),56,Lee
3626,Wal-Mart 2714 / Spencer,500  11TH ST,SPENCER,51301,POINT (-95.152474 43.126816),21,Clay
2622,Hy-Vee Food Store / Iowa City,1125 N DODGE ST,IOWA CITY,52240,POINT (-91.518868 41.676095),52,Johnson
3868,Wal-Mart 3630 / Marion,5491 BUSINESS HWY 151,MARION,52302,,57,Linn
2513,Hy-Vee Food Store #2 / Iowa City,812  S 1ST AVE,IOWA CITY,52240,,52,Johnson
4299,Hometown Market / Central City,9 WATERHOUSE AVE,CENTRAL CITY,52214,POINT (-91.530478 42.199296),57,Linn
2549,Hy-Vee Food Store / Indianola,910 N JEFFERSON,INDIANOLA,50125,,91,Warren
3778,Family Pantry,4538 LOWER BEAVER RD,DES MOINES,50310,POINT (-93.665871 41.638673),77,Polk
2290,Al's Liquors Unlimited,215 WEST MILWAUKEE,STORM LAKE,50588,POINT (-95.202405 42.647492),11,Buena Vista
3757,Wal-Mart 3590 / Sioux City,3101 FLOYD BLVD,SIOUX CITY,51108,POINT (-96.37287 42.530454),97,Woodbury
3990,Cork and Bottle / Oskaloosa,309 A AVE WEST,OSKALOOSA,52577,POINT (-92.648153 41.296228),62,Mahaska
3899,Wal-Mart 3762 / WDM,6365 STAGECOACH DR,WEST DES MOINES,50266,POINT (-93.795512 41.558107),77,Polk
3805,Washington Street Mini Mart,1601 WASHINGTON ST,DAVENPORT,52084,POINT (-90.665741 42.508947),82,Scott
2644,Hy-Vee Fort Dodge Wine and Spirits,1511 2ND AVE NORTH,FORT DODGE,50501,POINT (-94.177165 42.508344),94,Webster
2637,Hy-Vee #5 / Davenport,2351 W LOCUST,DAVENPORT,52804,POINT (-90.611972 41.538207),82,Scott
3871,Target Store T-0069 / WDM,1800  35TH ST,WEST DES MOINES,50266,POINT (-93.75199800000001 41.598813),77,Polk
3618,Wal-Mart 2716 / Cedar Rapids,3601 29TH AVE SW,CEDAR RAPIDS,52404,POINT (-91.718042 41.949215),57,Linn
2501,Hy-vee  #2 / Ames,640 LINCOLNWAY,AMES,50010,POINT (-93.619455 42.022848),85,Story
2599,Hy-Vee Wine and Spirits / Coralville,1914 8TH STREET,CORALVILLE,52241,POINT (-91.590715 41.682013),52,Johnson
2551,Hy-Vee Food Store / Chariton,2001 WEST COURT,CHARITON,50049,,59,Lucas
4274,Ruthven Meat Processing,1701 RAILROAD ST,RUTHVEN,51358,POINT (-94.897368 43.130922),74,Palo Alto
3417,Big G Food Store,PO BOX 261  310 W DILLON,MARENGO,52301,,48,Iowa
4654,KUM & GO #510 / STUART,629 S DIVISION ST,STUART,50250,POINT (-94.318482 41.496773),01,Adair
4014,Wal-Mart 1732 / Denison,510 C AVE,DENISON,51442,,24,Crawford
3666,Target Store T-1771 / Cedar Rapids,3400 EDGEWOOD RD SW,CEDAR RAPIDS,52404,POINT (-91.716111 41.944272),57,Linn
4567,Shop N Save / NW 2nd Ave / DSM,4685 NW 2nd AVE,DES MOINES,50313,,77,Polk
2465,Sid's Beverage Shop,2727 DODGE ST,DUBUQUE,52003,POINT (-90.705328 42.491862),31,Dubuque
2524,Hy-Vee Food Store / Dubuque,3500 DODGE ST,DUBUQUE,52001,,31,Dubuque
4172,Shamrock Spirits,1204 WATER ST PO BOX 177,ALDEN,50006,POINT (-93.376271 42.520423),42,Hardin
3782,Bender Foods / Guttenberg,619 S HWY 52,GUTTENBERG,52052,POINT (-91.100489 42.77964),,
3886,Wal-Mart 0646 / Anamosa,101  115 ST,ANAMOSA,52205,POINT (-91.26496500000002 42.101677),53,Jones
2620,Hy-Vee / Windsor Heights,7101 UNIVERSITY AVE,WINDSOR HEIGHTS,50311,,77,Polk
2509,Hy-Vee / Drugtown #1 / Cedar Rapids,1520 6TH ST SW,CEDAR RAPIDS,52404,POINT (-91.67706 41.962419),57,Linn
2538,Hy-Vee Food Store #3 / Waterloo,1422 FLAMMANG DR,WATERLOO,50702,POINT (-92.327917 42.459938),07,Black Hawk
3632,Wal-Mart 2004 / Dubuque,4200 DODGE ST,DUBUQUE,52003,POINT (-90.736955 42.489041),31,Dubuque
4743,No Frills Supermarkets #791 / Counci,1801 VALLEY VIEW DR,COUNCIL BLUFFS,51503,POINT (-95.81877500000002 41.24394),78,Pottawattamie
2564,Hy-Vee Food Store #4 / Waterloo,4000 UNIVERSITY,WATERLOO,50701,POINT (-92.403843 42.505197),07,Black Hawk
4183,Fareway Stores #589 / Decorah,103 E MAIN,DECORAH,52101,POINT (-91.785286 43.303291),96,Winneshiek
3582,Korthouse Liquor,102 W 1ST ST,LEON,50144,POINT (-93.747995 40.739495),27,Decatur
4384,Kum & Go #2093 / Adel,409 NILE KINNICK DR,ADEL,50003,POINT (-94.017511 41.614114),25,Dallas
4107,Fareway Stores #384 / Boone,1711 HAWKEYE DR,BOONE,50036,POINT (-93.867439 42.037347),08,Boone
4311,Fareway Stores #508 / Fort Dodge,1231  1ST AVE S,FORT DODGE,50501,POINT (-94.18154 42.50513),94,Webster
2448,Bottle Boutique,705 E. SECOND,INDIANOLA,50125,POINT (-93.55261600000001 41.358176),91,Warren
4149,Fareway Stores #015 / Denison,609 ARROWHEAD DR,DENISON,51442,POINT (-95.371847 42.024517),24,Crawford
4447,QUIK TRIP #567 / URBANDALE,"9915, DOUGLAS AVE",URBANDALE,50322,POINT (-93.755433 41.62945),77,Polk
2567,Hy-Vee Drugstore / Davenport,2200 WEST KIMBERLY,DAVENPORT,52806,POINT (-90.608201 41.560663),82,Scott
4328,Jr's On The Rocks,313 COLLEGE DR,DECORAH,52101,POINT (-91.797665 43.308557),96,Winneshiek
3997,Wal-Mart 4606 / Osceola,2400 COLLEGE DR,OSCEOLA,50213,POINT (-93.800214 41.024891000000004),20,Clarke
2626,Hy-Vee Drugstore / University / DSM,4100 UNIVERSITY AVE,DES MOINES,50311,POINT (-93.673222 41.600361),77,Polk
2588,Hy-Vee Food and Drug #6 / Cedar Rapi,4035 MT. VERNON ROAD S.E.,CEDAR RAPIDS,52403,POINT (-91.60978 41.976835),57,Linn
4709,Walgreens #12108 / Ames,2719 GRAND AVE,AMES,50010,POINT (-93.620635 42.048974),85,Story
4157,Fareway Stores #993 / North Liberty,615 WESTWOOD DR   P.O Box 96,NORTH LIBERTY,52317,POINT (-91.608385 41.741097),52,Johnson
3592,Wal-Mart 0886 / Fort Dodge,3036 1ST AVE SOUTH,FORT DODGE,50501,POINT (-94.153456 42.505334),42,Hardin
4648,Prime Mart / Broadway Waterloo,508 BROADWAY ST,WATERLOO,50703,POINT (-92.345104 42.510573),07,Black Hawk
3909,D And S Grocery,104 SE  A ST,MELCHER-DALLAS,50163,POINT (-93.24163400000002 41.222471),63,Marion
3901,Target Store T-0878 / Fort Dodge,2910  1 AVE S,FORT DODGE,50501,POINT (-94.157366 42.505335),94,Webster
2613,Hy-Vee Food Store #1 / Council Bluff,2323 W BROADWAY,COUNCIL BLUFFS,51501,POINT (-95.879662 41.261925),78,Pottawattamie
2562,Hy-Vee Food Store / Fort Dodge,115 SOUTH 29TH ST,FORT DODGE,50501,POINT (-94.15824700000002 42.504742),94,Webster
2806,Osco #881 / Clinton,1307 N SECOND,CLINTON,52732,POINT (-90.184797 41.858932),23,Clinton
4836,Kum & Go #52 / Iowa City,25 W BURLINGTON ST,IOWA CITY,52240,POINT (-91.537252 41.657904),52,Johnson
2536,HY-VEE / PLEASANT HILL,4815 MAPLE DRIVE,PLEASANT HILL,50317,POINT (-93.519187 41.598109),77,Polk
2590,Hy-Vee Food Store #5 / Cedar Rapids,3235 OAKLAND ROAD NE,CEDAR RAPIDS,52402,POINT (-91.658105 42.010971),57,Linn
2550,Hy-Vee Food Store / Osceola,510 WEST MCLANE,OSCEOLA,50213,POINT (-93.77321 41.030569),20,Clarke
3926,Liquor Downtown / Iowa City,315 S GILBERT ST,IOWA CITY,52240,POINT (-91.530181 41.657654),52,Johnson
3879,Target Store T-1800 / Sioux City,5775 SUNNYBROOK DR,SIOUX CITY,51106,POINT (-96.332446 42.448939),97,Woodbury
4253,Fareway Stores #683 / Winterset,719 W HWY 92,WINTERSET,50273,POINT (-94.022239 41.344866),61,Madison
3942,Twin Town Liquor,104 HIGHWAY 30 WEST,TOLEDO,52342,POINT (-92.579446 41.985985),86,Tama
3652,Discount Liquors Of Ida Grove,604 W 2ND,IDA GROVE,51445,POINT (-94.876368 42.063517),47,Ida
3678,"Smoke Shop, The",1918 SE 14TH ST,DES MOINES,50320,POINT (-93.597011 41.570844),77,Polk
2572,Hy-Vee Food Store / Cedar Falls,6301 UNIVERSITY,CEDAR FALLS,50613,POINT (-92.435236 42.512789),07,Black Hawk
4349,Southside Food Mart,1101 ARMY POST RD,DES MOINES,50315,POINT (-93.628783 41.526511),77,Polk
3766,Kolby's Liquor Store,419 W MILWAUKEE,NEW HAMPTON,50659,POINT (-92.32302900000002 43.066752),19,Chickasaw
3705,Liquor Locker,507 1ST AVE #100,ROCK RAPIDS,51246,,60,Lyon
2578,Hy-Vee / Charles City,901 KELLY ST,CHARLES CITY,50616,POINT (-92.67556000000002 43.066993),34,Floyd
4561,Kroegers Liquor Co LLC,3539 LAFAYETTE RD,EVANSDALE,50707,POINT (-92.289505 42.477712),07,Black Hawk
4371,Kum & Go #50 / West Des Moines,745 S 51ST ST,WEST DES MOINES,50265,POINT (-93.77275 41.55871),77,Polk
4004,Wal-Mart 4256 / Ames,534 S DUFF AVE,AMES,50010,POINT (-93.610343 42.017115),85,Story
2539,Hy-Vee Food Store / iowa Falls,HIGHWAY 65 SOUTH,IOWA FALLS,50126,,42,Hardin
2523,Hy-Vee Food Store / Centerville,414 N 18TH ST,CENTERVILLE,52544,POINT (-92.86795 40.735639),04,Appanoose
2200,Sac Liquor Store,619 E MAIN ST,SAC CITY,50583,POINT (-94.974011 42.421341),81,Sac
4318,Fareway Stores #841 / Red Oak,811 BROADWAY,RED OAK,51566,POINT (-95.321174 41.663944),69,Montgomery
4482,Indy 66 West #929 / Indianola,"2001, WEST 2ND AVE",INDIANOLA,50125,POINT (-93.58762800000001 41.356153),91,Warren
4666,Super Stop II / Altoona,2635 ADVENTURELAND DR,ALTOONA,50009,POINT (-93.494642 41.65854),77,Polk
4509,A J'S LIQUOR II,2515 CHAMBERLAIN,AMES,50010,POINT (-93.650838 42.021461),85,Story
4189,Fareway Stores #594 / Manchester,109 EAST MARION ST,MANCHESTER,52057,POINT (-91.457225 42.48217),28,Delaware
2606,Hy-Vee Wine and Spirits / Humboldt,1011  13TH ST NORTH,HUMBOLDT,50548,POINT (-94.227116 42.733221),46,Humboldt
4205,Fareway Stores #467 / Marshalltown,102 WEST ANSON ST,MARSHALLTOWN,50158,POINT (-92.914409 42.038157000000005),64,Marshall
2959,Dahl's / Merle Hay,4343 MERLE HAY ROAD,DES MOINES,50310,POINT (-93.697647 41.63740800000001),77,Polk
4674,Kum & Go #227 / Ames,2108 ISSAC NEWTON DR,AMES,50010,POINT (-93.585891 42.009586),85,Story
3888,Wal-Mart 0647 / Grinnell,415 INDUSTRIAL AVE,GRINNELL,50112,POINT (-92.730259 41.720919),79,Poweshiek
3656,Target Store T-1767 / Ankeny,2135 SE DELAWARE AVE,ANKENY,50021,POINT (-93.581201 41.708563),77,Polk
2545,Hy-Vee Drugstore / Iowa City,310 N 1ST ST,IOWA CITY,52245,POINT (-91.528105 42.207428),52,Johnson
4433,Kum & Go #24  Pleasant Hill,5970 MORNING STAR CT,PLEASANT HILL,50317,POINT (-93.492204 41.597596),77,Polk
4620,Nodaway Valley Market,304 4th ST,FONTANELLE,50846,POINT (-94.562813 41.289069),01,Adair
3583,Mac's Liquor And Videos,220 EAST JEFFERSON,CORYDON,50060,POINT (-93.315977 40.757158),93,Wayne
2515,Hy-Vee Food Store #1 / Mason City,2400 4TH ST SW,MASON CITY,50401,POINT (-93.235588 43.148451),17,Cerro Gordo
4015,Wal-Mart 0749 / Ames,3015 GRAND AVE,AMES,50010,POINT (-93.62068300000001 42.05242),85,Story
2614,Hy-Vee #3 Food and Drugstore,1823 E KIMBERLY RD,DAVENPORT,52807,POINT (-90.548919 41.55678100000001),82,Scott
4856,Brothers Market / Lisbon,930 COMMERCIAL ST,LISBON,52253,POINT (-91.401062 41.918663),57,Linn
2666,Hy-Vee #2 / Ankeny,2510 SW STATE ST,ANKENY,50023,POINT (-93.621824 41.705188),77,Polk
4001,Wal-Mart 1787 / Carroll,2014 KITTY HAWK AVE,CARROLL,51401,POINT (-94.893501 42.081312),14,Carroll
4507,Casey's General Store #2902 / Spence,411 W 18TH,SPENCER,51301,POINT (-95.150966 43.155628),21,Clay
3873,Target Store T-1113 / Coralville,1441 CORAL RIDGE AVE,CORALVILLE,52241,POINT (-91.608399 41.691276),52,Johnson
2537,Hy-Vee Drugstore / Fort Dodge,215 S 25TH ST,FORT DODGE,50501,POINT (-94.163096 42.503345),94,Webster
4204,Fareway Stores #025 / Clinton,1350 11TH ST NW,CLINTON,52733,POINT (-90.211315 41.860978),23,Clinton
2553,Hy-Vee Food Store / Creston,600 SHELDON,CRESTON,50801,POINT (-94.372552 41.051462),88,Union
2228,Rodgers Spirits and More,53 GREEN ST,WINTERSET,50273,POINT (-94.013374 41.336405),61,Madison
4273,Smokin' Joe's #4 Tobacco and Liquor,2800 E UNIVERSITY AVE,DES MOINES,50317,POINT (-93.562106 41.600564),77,Polk
4795,Walgreens #00359 / Des Moines,2545 E EUCLID AVE,DES MOINES,50317,POINT (-93.568668 41.627702000000006),77,Polk
3932,Main Street Spirits / Mapleton,311 MAIN ST,MAPLETON,51034,POINT (-95.79375 42.165915),67,Monona
2649,Hy-Vee #3 / Dubuque,400 LOCUST ST,DUBUQUE,52001,POINT (-90.666497 42.49721900000001),31,Dubuque
4143,Bucky's,603  E HWY 24,LAWLER,52154,POINT (-92.14835 43.06721),19,Chickasaw
2645,Hy-Vee Drugstore / Muscatine,510 E 6TH ST,MUSCATINE,52761,POINT (-91.044008 41.427202),70,Muscatine
2459,Reinhart Foods,200 STATE PO BOX 98,GUTHRIE CENTER,50115,,39,Guthrie
2604,Hy-Vee Wine and Spirits / Lemars,1201 12TH AVE SW,LEMARS,51031,POINT (-96.18335000000002 42.778257),75,Plymouth
3894,Smokin' Joe's #6 Tobacco and Liquor,1404  1ST AVE NE,CEDAR RAPIDS,52402,POINT (-91.6537 41.987286),57,Linn
4360,Kum & Go #333 / Newton,405 1ST AVE E,NEWTON,50208,POINT (-93.049443 41.699578),50,Jasper
4165,I-35 Spirits / Ankeny,113 SE DELAWARE AVE STE 101,ANKENY,50023,POINT (-93.581093 41.731416),77,Polk
2556,Hy-Vee Wine and Spirits / Esthervill,2608 E. CENTRAL AVENUE,ESTHERVILLE,51334,,32,Emmet
3628,Wal-Mart 1528 / Cedar Rapids,2645 BLAIRS FERRY RD NE,CEDAR RAPIDS,52402,POINT (-91.680734 42.034748),57,Linn
4137,Fareway Stores #989 / Waukee,200 SE LAUREL ST,WAUKEE,50263,POINT (-93.86786 41.614033),25,Dallas
2951,Dahl's / Hickman,8700 HICKMAN,CLIVE,50322,,77,Polk
4418,KUM & GO #46 / WALNUT,1709 ANTIQUE CITY DR,WALNUT,51577,POINT (-95.222087 41.494138),78,Pottawattamie
3451,Barnes Foodland,622 10TH ST,DEWITT,52742,POINT (-90.540132 41.825139),23,Clinton
2643,Hy-Vee Wine and Spirits / Waterloo,2126 KIMBALL AVE,WATERLOO,50701,,07,Black Hawk
3645,Wal-Mart 1764 / Windsor Heights,1001  73RD ST,WINDSOR HEIGHTS,50311,POINT (-93.716991 41.594787),77,Polk
4136,Fareway Stores #983 / Grimes,351 GATEWAY DR,GRIMES,50111,,77,Polk
4404,KUM & GO #292 / ANKENY,1825 N ANKENY BLVD,ANKENY,50021,,77,Polk
2503,Hy-Vee Drugstore / Ankeny,849 SOUTH ANKENY BLVD.,ANKENY,50021,,77,Polk
4322,Hometown Foods / Baxter,103 N MAIN ST,BAXTER,50028,POINT (-93.151465 41.826715),50,Jasper
2552,Hy-Vee Food Store #3 / Cedar Rapids,20 WILSON AVENUE WEST,CEDAR RAPIDS,52404,POINT (-91.658577 41.955859),57,Linn
4051,Fareway Stores #639 / Maquoketa,110 WESTGATE DR,MAQUOKETA,52060,POINT (-90.680623 42.067391),49,Jackson
2535,Hy-Vee Food Store #1 / WDM,1700 VALLEY WEST DR,WEST DES MOINES,50265,,77,Polk
4200,Fareway Stores #019 / Sioux City,4016 INDIAN HILLS DR,SIOUX CITY,51108,POINT (-96.373252 42.538578),97,Woodbury
2624,Hy-Vee #2 / Dubuque,2395 NW ARTERIAL RD,DUBUQUE,52002,POINT (-90.741064 42.516633),31,Dubuque
4202,Fareway Stores #829 / Sioux City,4267 SERGEANT RD,SIOUX CITY,51106,POINT (-96.354307 42.449933),97,Woodbury
4043,Gasland #102 / Burlington,1703 MT PLEASANT ST,BURLINGTON,52601,POINT (-91.121931 40.819885),29,Des Moines
3704,Celtics Beverage Company,1122 BROADWAY,EMMETSBURG,50536,POINT (-94.678807 43.10937),74,Palo Alto
2641,Hy-Vee Drugstore / Council Bluffs,757 W BROADWAY,COUNCIL BLUFFS,51501,POINT (-95.855054 41.261673),78,Pottawattamie
4805,Liquor Tobacco & Grocery / Fort Dodg,902 1ST AVE N,FORT DODGE,50501,POINT (-94.186138 42.506332),94,Webster
2500,Hy-Vee Food Store #1 / Ames,3800 W LINCOLN WAY,AMES,50010,,85,Story
3587,Save A Lot  #482,2122 MAIN ST,KEOKUK,52632,POINT (-91.39688800000002 40.408821),56,Lee
4192,Fareway Stores #044 / Bettendorf,3800 BELMONT RD,BETTENDORF,52722,POINT (-90.480368 41.556273),82,Scott
3762,Wine and Spirits Gallery,7690 HICKMAN RD,WINDSOR HEIGHTS,50322,,77,Polk
4180,Smokin' Joe's #10 Tobacco and Liquor,480 7TH AVE,MARION,52302,POINT (-91.605094 42.033366),57,Linn
3660,Wal-Mart 2935 / Knoxville,814 W BELL AVE,KNOXVILLE,50138,POINT (-93.106728 41.306176),63,Marion
2353,Cresco Liquor Store,708 2ND AVE SE,CRESCO,52136,POINT (-92.106529 43.371131),45,Howard
2592,Hy-Vee Drugstore / Marshalltown,1712 S CENTER  ST,MARSHALLTOWN,50158,POINT (-92.91250500000001 42.027531),64,Marshall
3934,Wal-Mart 1509 / Maquoketa,103 E CARLISLE,MAQUOKETA,52060,POINT (-90.66292 42.04869),49,Jackson
2532,Hy-Vee Food Store #2 / Des Moines,2540 E EUCLID,DES MOINES,50317,POINT (-93.569452 41.627838),77,Polk
2651,Hy-Vee / Waverly,1311 4 STREET SW,WAVERLY,50677,POINT (-92.475403 42.712263),09,Bremer
4457,KUM & GO #422 / IOWA CITY,513 S RIVERSIDE DR,IOWA CITY,52240,POINT (-91.540402 41.653301),52,Johnson
3917,Smokin' Joe's #2 Tobacco and Liquor,1606 W LOCUST ST,DAVENPORT,52804,POINT (-90.599037 41.538254),82,Scott
3525,Wines and Spirits,106 W 2ND ST,WASHINGTON,52353,POINT (-91.692214 41.300399),92,Washington
2655,Hy-Vee Food Store / Clarinda,1200 S 16TH ST,CLARINDA,51632,POINT (-95.037849 40.726808),73,Page
3925,Johncy's Liquor Store Inc,585 HWY 965 S  STE E,NORTH LIBERTY,52317,POINT (-91.60761 41.738129),48,Iowa
3912,Smokin' Joe's #14 Tobacco and Liquor,225 EDGEWOOD RD,CEDAR RAPIDS,52405,,57,Linn
3540,Super Target T-0533 / Davenport,5225 ELMORE AVE,DAVENPORT,52807,POINT (-90.528585 41.573196),82,Scott
4670,Guppy's On The Go / Tripoli,"600, 7TH AVE SW",TRIPOLI,50676,POINT (-92.264269 42.802374),09,Bremer
3963,Tobacco Hut #14 / Council Bluffs,1925 W BROADWAY,COUNCIL BLUFFS,51501,POINT (-95.873073 41.261866),78,Pottawattamie
2652,Hy-Vee DrugStore / Mason City,875  4TH ST SW,MASON CITY,50401,POINT (-93.213856 43.148257),17,Cerro Gordo
4012,Fast Mart,1401 BUCHANAN ST,DES MOINES,50316,POINT (-93.599362 41.59878),77,Polk
4219,Lake Liquors Wine and Spirits,910 N 8TH ST W,CLEAR LAKE,50428,POINT (-93.396651 43.142775),17,Cerro Gordo
2571,Hy-Vee Food Store #2 / Waterloo,2181 LOGAN AVE,WATERLOO,50703,POINT (-92.337583 42.530476),07,Black Hawk
2576,Hy-Vee Wine and Spirits / Storm Lake,1250 N LAKE ST,STORM LAKE,50588,POINT (-95.200758 42.65318400000001),11,Buena Vista
4593,The Cue Liquors,1404 MAIN ST,ROCK VALLEY,51247,POINT (-96.294873 43.204363),84,Sioux
2623,Hy-Vee Food Store #4 / Sioux City,2827 HAMILTON BLVD,SIOUX CITY,51104,POINT (-96.417783 42.519886),97,Woodbury
3707,Target Store T-1768 / Cedar Rapids,1030 BLAIRS FERRY RD NE,CEDAR RAPIDS,52402,POINT (-91.649625 42.035157),57,Linn
2555,Hy-Vee Food Store / Keokuk,3111 MAIN,KEOKUK,52632,POINT (-91.403752 40.41538),56,Lee
3993,New Star Liquor / W 4th S / Waterloo,1625 WEST 4TH ST,WATERLOO,50701,,07,Black Hawk
4321,Fareway Stores #501 / Charles City,210  11TH ST,CHARLES CITY,50616,POINT (-92.674449 43.052712),34,Floyd
4473,Casey's General Store #92 / Panora,"113, NE 3RD ST",PANORA,50216,POINT (-94.361364 41.692351),39,Guthrie
2584,Hy-Vee Food Store / Fort Madison,2606 AVENUE L,FORT MADISON,52627,POINT (-91.343544 40.626988),56,Lee
3488,Bender's Foods,400 S SECOND,BELLEVUE,52031,POINT (-90.42292 42.255449),49,Jackson
3870,Target Store T-1939 / Altoona,3414 8TH ST SW,ALTOONA,50009,POINT (-93.503783 41.644024),77,Polk
2601,Hy-Vee Food Store / Fairfield,1300 WEST BURLINGTON AVE,FAIRFIELD,52556,POINT (-91.978702 41.006456),51,Jefferson
4072,Famous Liquors,2604 W LOCUST ST,DAVENPORT,52804,POINT (-90.615542 41.538186),82,Scott
2460,"Liquor Barn, Inc.",721 CENTRAL AVENUE WEST,HAMPTON,50441,POINT (-93.21693 42.741728),35,Franklin
3528,Super Target T-0804 Mason City,3450  4TH ST SW,MASON CITY,50401,POINT (-93.250371 43.148393),17,Cerro Gordo
2653,Hy-Vee Wine and Spirits / Washington,1004 W MADISON ST,WASHINGTON,52353,POINT (-91.704567 41.296576),92,Washington
2665,Hy-Vee / Waukee,1005 E HICKMAN RD,WAUKEE,50263,POINT (-93.854477 41.615059),25,Dallas
3819,Quillins Decorah,915 SHORT ST,DECORAH,52101,POINT (-91.79777100000001 43.291023),96,Winneshiek
4319,Fareway Stores #703 / Humbolt,710 FIRST AVE N,HUMBOLDT,50548,POINT (-94.218699 42.722165),46,Humboldt
2558,Hy-Vee Food Store / Mount Pleasant,1700 E WASHINGTON,MOUNT PLEASANT,52641,POINT (-91.52888 40.962331000000006),44,Henry
4734,Walgreens #04973 / Urbandale,7000 DOUGLAS AVE,URBANDALE,50322,POINT (-93.712815 41.629407),77,Polk
4378,Kum & Go #202 / 4th St Waukee,85  4TH ST,WAUKEE,50263,POINT (-93.882532 41.613918),25,Dallas
4684,Indy 66 #928 / Indianola,1201 N JEFFERSON,INDIANOLA,50125,,91,Warren
4112,Corridor Ventures,618 MEADE DR,NORTH LIBERTY,52317,POINT (-91.608725 41.752451),52,Johnson
4108,Oasis Grocery and Liquor /,2917 PAYNE,DES MOINES,50310,POINT (-93.658311 41.620075),77,Polk
4370,Kum & Go #240 / North Ave Norwalk,530 NORTH AVE,NORWALK,50211,POINT (-93.681862 41.475381),91,Warren
3950,Hometown Foods / State Center,120 E MAIN ST,STATE CENTER,50247,POINT (-93.162349 42.016845),48,Iowa
4713,Walgreens #10985 / Coralville,2751 HEARTLAND DR,CORALVILLE,52241,POINT (-91.60946 41.70051),52,Johnson
3651,Wal-Mart 1491 / Indianola,1500 NORTH JEFFERSON,INDIANOLA,50125,,91,Warren
3742,Wal-Mart 1625 / Lemars,1111 HOLTON DR,LEMARS,51031,POINT (-96.185499 42.780675),75,Plymouth
2505,Hy-Vee Wine and Spirits / Boone,1111  8TH ST,BOONE,50036,POINT (-93.876107 42.063831),08,Boone
4021,Wal-Mart 0985 / Fairfield,2701 W BURLINGTON AVE,FAIRFIELD,52556,POINT (-91.993721 41.006375),51,Jefferson
4924,Abby Lea's,"2757, CHARLES CITY RD",NASHUA,50658,POINT (-92.547524 42.959023),19,Chickasaw
2621,Hy-Vee Food Store #3 / Sioux City,3301 GORDON DR,SIOUX CITY,51105,POINT (-96.364108 42.487752),97,Woodbury
4456,Kum & Go #53 / Iowa City,955 MORMAN TREK BLVD,IOWA CITY,52246,POINT (-91.574075 41.649946),52,Johnson
3859,Wal-Mart 0750 / Independence,302 ENTERPRISE DR SW,INDEPENDENCE,50644,POINT (-91.892924 42.450709),10,Buchanan
4258,Fareway Stores #009 / Burlington,920 LAWRENCE DR,BURLINGTON,52601,POINT (-91.140051 40.799097),29,Des Moines
3776,Wal-Mart 5115 / Davenport,3101 WEST KIMBERLY RD,DAVENPORT,52806,POINT (-90.620069 41.559268),82,Scott
3621,"Jensen Liquors, Ltd.",615  2ND AVE,SHELDON,51201,POINT (-95.854899 43.184242),71,O'Brien
3514,Karen's Spirits and Wine,328  2ND AVE S,FORT DODGE,50501,POINT (-94.192501 42.502311),94,Webster
3536,Geno's Liquor,111 S COMMERCIAL AVE,EAGLE GROVE,50533,POINT (-93.904495 42.663626),99,Wright
3584,L and M Beverage,1011 S FREDERICK M/A PO BX 572,OELWEIN,50662,,33,Fayette
4604,Pit Stop Liquors / Newton,"1324, 1st AVE E",NEWTON,50208,POINT (-93.035654 41.699173),50,Jasper
3761,Cheese's Food Center,200 N WALNUT ST,LENOX,50851,POINT (-94.560455 40.882645),87,Taylor
4631,Thunder Ridge Ampride,"2425, WHITETAIL DR",CEDAR FALLS,50613,POINT (-92.475132 42.539967),07,Black Hawk
3811,Wal-Mart 1431 / Keokuk,300 NORTH PARK DR,KEOKUK,52632,POINT (-91.407263 40.418589),56,Lee
4582,Pronto / Spirit Lake,"2402, 17th ST",SPIRIT LAKE,51360,POINT (-95.126585 43.42282),30,Dickinson
4478,U S Gas,"3000, SW 9th ST",DES MOINES,50315,POINT (-93.625682 41.557862),77,Polk
4156,Fareway Stores #412 / Oelwein,102  2ND AVE SE,OELWEIN,50662,POINT (-91.910502 42.677024),33,Fayette
4519,Casey's General Store #2923 / WDM,1850 22ND ST,WEST DES MOINES,50266,POINT (-93.736188 41.59992),77,Polk
2508,Hy-Vee Food Store #1 / Cedar Rapids,"1843 JOHNSON AVENUE, N.W.",CEDAR RAPIDS,52405,POINT (-91.697941 41.97447),57,Linn
4672,The Pit Stop / River City Liquor,402 S HWY 52,GUTTENBERG,52052,POINT (-91.100471 42.782424000000006),22,Clayton
3890,Smokin' Joe's #7 Tobacco and Liquor,904  1ST AVE NW,CEDAR RAPIDS,52405,POINT (-91.683669 41.972773),57,Linn
4150,Fareway Stores #951 / Waterloo,40  W SAN MARNAN,WATERLOO,50701,,07,Black Hawk
3857,Quillins Food Ranch / Waukon,9TH ST SW B,WAUKON,52172,,03,Allamakee
4057,Tequila's Liquor Store,1434 DES MOINES ST STE 5,DES MOINES,50316,POINT (-93.59704 41.594713),77,Polk
3822,The Secret Cellar,1205 CURTIS BR RD NE,SWISHER,52338,POINT (-91.646067 41.847398),52,Johnson
3721,Wal-Mart 0913 / Decorah,1798 OLD STAGE RD,DECORAH,52101,POINT (-91.753135 43.290041),96,Winneshiek
4185,Fareway Stores #737 / Grinnell,727 WEST ST,GRINNELL,50112,POINT (-92.727347 41.741352),79,Poweshiek
4419,KUM & GO #4 / LAMONI,2091 E MAIN ST,LAMONI,50140,POINT (-93.896684 40.623454),27,Decatur
4344,Spirits / Grimes,109 EAST 1ST ST STE B,GRIMES,50111,POINT (-93.793827 41.68840000000001),77,Polk
2607,Hy-Vee Wine and Spirits / Shenandoah,520 SO FREMONT,SHENANDOAH,51601,POINT (-95.385111 40.761736),73,Page
3880,Target Store T-2454 / Council Bluffs,3804 METRO DR,COUNCIL BLUFFS,51503,POINT (-95.837595 41.220979),78,Pottawattamie
4062,H and A Mini Mart Corp,145 UNIVERSITY AVE,DES MOINES,50314,POINT (-93.61947 41.600419),77,Polk
3911,"Burg Spirits, Llc.",813 1/2 HIGHLAND ST,WILLIAMSBURG,52361,,48,Iowa
4741,Walgreens #03700 / Council Bluffs,535 E BROADWAY,COUNCIL BLUFFS,51503,POINT (-95.839753 41.266015),78,Pottawattamie
4736,Walgreens #03876 / Marion,1225 7TH AVE,MARION,52302,POINT (-91.596312 42.033295),57,Linn
9001,Cedar Ridge Vineyards,1441 MARAK RD NW,SWISHER,52338,POINT (-91.67737 41.8321),52,Johnson
4483,Sauce,108 E COLLEGE,IOWA CITY,52240,POINT (-91.533522 41.658979),52,Johnson
2566,Hy-Vee Food Store / Knoxville,813 N LINCOLN STE 1,KNOXVILLE,50138,,63,Marion
2612,Hy-Vee Store / Perry,1215  141 ST,PERRY,50220,POINT (-94.104501 41.830292),25,Dallas
3847,Logan Ave Convenience Store,735 LOGAN AVE,WATERLOO,50703,POINT (-92.337744 42.510453),07,Black Hawk
3881,7 Rayos Liquor Store,120 E MAIN ST,MARSHALLTOWN,50158,POINT (-92.9104 42.049166),64,Marshall
4102,Fareway Stores #386 / Ames,619 BURNETT AVE,AMES,50010,POINT (-93.615428 42.027426),85,Story
4598,Quik Trip #501 / E Euclid DM,2221 E EUCLID AVE,DES MOINES,50317,POINT (-93.577655 41.627702000000006),77,Polk
3650,"Spirits, Stogies and Stuff",118 South Main St.,HOLSTEIN,51025,POINT (-95.544794 42.488704),47,Ida
2627,Hy-Vee Wine and Spirits #1,3424 MARTIN LUTHER KING JR PKW,DES MOINES,50310,POINT (-93.65129 41.626668),77,Polk
4732,Walgreens #07967 / Clive,15601 HICKMAN RD,CLIVE,50325,,77,Polk
4804,Walgreens #07833 / Des Moines,3501 INGERSOLL AVE,DES MOINES,50312,POINT (-93.664571 41.586323),77,Polk
4152,Food Land Super Markets / Missouri V,407 W HURON,MISSOURI VALLEY,51555,POINT (-95.899346 41.557404),43,Harrison
4461,QUIK TRIP #503 / WINDSOR HEIGHTS,7220 HICKMAN RD,WINDSOR HEIGHTS,50324,POINT (-93.717442 41.614647),77,Polk
2582,Hy-Vee #2 Food Store / Mason City,551 S ILLINOIS AVE,MASON CITY,50401,POINT (-93.17114 43.14623),17,Cerro Gordo
4222,Station Mart Liquor and Tobbacco,3594 LAFAYETTE ST,EVANSDALE,50707,,07,Black Hawk
2569,Hy-Vee Food Store #2 / Cedar Rapids,279 COLLINS ROAD NE,CEDAR RAPIDS,52402,POINT (-91.630677 42.027805),57,Linn
4158,Fareway Stores #409 / Carroll,709 MONTEREY DR,CARROLL,51401,POINT (-94.850616 42.065252),14,Carroll
2518,Hy-Vee Wine and Spirits / Red Oak,1607 NORTH BROADWAY,RED OAK,51566,POINT (-95.83539 41.279189),69,Montgomery
4005,Lansing Liquor and More,417 MAIN ST,LANSING,52151,POINT (-91.219222 43.36182),03,Allamakee
2602,Hy-Vee Food Store / Webster City,823  2ND ST,WEBSTER CITY,50595,POINT (-93.825486 42.469466),40,Hamilton
4366,Kum & Go #137 / Tiffin,101 VILLAGE DR,TIFFIN,52340,POINT (-91.6656 41.697221),52,Johnson
4084,Fareway Stores #061 / Ankeny,3205 NORTH ANKENY BLVD,ANKENY,50023,,77,Polk
3456,Quick Shop / Clear Lake,904 N 8TH ST,CLEAR LAKE,50428,POINT (-93.378772 43.142868),17,Cerro Gordo
2507,Hy-Vee Food Store #1 / Burlington,939 ANGULAR,BURLINGTON,52601,POINT (-91.110752 40.801889),29,Des Moines
2953,Dahl's / E. Euclid,1320 E. EUCLID,DES MOINES,50316,POINT (-93.602851 41.627778),77,Polk
4255,FAREWAY STORES #058 / ORANGE CITY,512  8TH SE,ORANGE CITY,51041,,84,Sioux
4098,Wal-Mart 1475 / Washington,2485 HWY 92,WASHINGTON,52353,POINT (-91.660194 41.296202),92,Washington
2636,Hy-Vee Wine and Spirits / Hubbell,2310 HUBBELL AVE,DES MOINES,50317,POINT (-93.573845 41.604312),77,Polk
4729,No Frills Supermarkets #790 / Deniso,501 HIGHWAY 39 NORTH,DENISON,51442,POINT (-95.368652 42.02183),24,Crawford
3647,Wal-Mart 2889 / Clinton,2715 SOUTH 25TH ST,CLINTON,52732,POINT (-90.245005 41.818874),23,Clinton
4956,The Cooler,"4920, JOHNSON AVE NW",CEDAR RAPIDS,52405,POINT (-91.734311 41.967997),57,Linn
3947,Seaton's Flag Foods,122 A EAST FRONT ST,BROOKLYN,52211,POINT (-92.444377 41.728699),79,Poweshiek
4794,Smokin' Joe's #17 Tobacco and Liquor,110 S ROOSEVELT HWY 61,BURLINGTON,52601,POINT (-91.141203 40.80943700000001),29,Des Moines
4023,Wal-Mart 1389 / Boone,1515 SE MARSHALL ST,BOONE,50036,POINT (-93.869892 42.035093),08,Boone
3461,Hometown Foods / Stuart,611 S DIVISION ST,STUART,50250,POINT (-94.318443 41.49759900000001),01,Adair
4163,Fareway Stores #461 / Storm Lake,731 SENECA ST,STORM LAKE,50588,POINT (-95.196856 42.646379),11,Buena Vista
3696,Wal-Mart 1723 / Des Moines,5101 SE 14TH ST,DES MOINES,50315,,77,Polk
3908,County Market #214 / Fort Madison,11802 AVENUE H,FORT MADISON,52627,,56,Lee
4025,Karam Kaur Khasriya Llc,702 13TH ST,BELLE PLAINE,52208,POINT (-92.277759 41.897052),06,Benton
4317,Fareway Stores #941 / Greenfield,212 SW KENT,GREENFIELD,50849,POINT (-94.462719 41.303167),01,Adair
4742,No Frills Supermarkets #786 / Counci,"1817, W BROADWAY",COUNCIL BLUFFS,51501,POINT (-95.870993 41.261863),78,Pottawattamie
3816,Swils,200 E OAK ST,RED OAK,51566,POINT (-95.230032 41.016691),69,Montgomery
3162,Nash Finch / Wholesale Food,807 GRANDVIEW,MUSCATINE,52761,POINT (-91.06411300000002 41.408437),70,Muscatine
2413,Beecher Beverage,1691 ASBURY ROAD,DUBUQUE,52001,POINT (-90.696886 42.500775000000004),31,Dubuque
4256,Fareway Stores #912 / Sioux Center,115  1ST AVE NW,SIOUX CENTER,51250,POINT (-96.176959 43.078003),84,Sioux
4069,Fareway Stores #648 / Ottumwa,1325 ALBIA RD,OTTUMWA,52501,POINT (-92.440213 41.00934),90,Wapello
3437,Scott's Foods,1120 SUNSET DRIVE,NORWALK,50211,POINT (-93.67803700000002 41.479944),91,Warren
2611,Hy-Vee Drugstore / Ottumwa,1140 NORTH JEFFERSON ST,OTTUMWA,52501,POINT (-92.401538 41.026754000000004),90,Wapello
4248,Fareway Stores #021 / Sheldon,2603 PARK ST,SHELDON,51201,POINT (-95.821001 43.186061),71,O'Brien
4181,Puff N Snuff,1101 RHOMBERG AVE,DUBUQUE,52001,POINT (-90.660269 42.519502),31,Dubuque
4104,Fareway Stores #491 / Mason City,400 NORTH DELAWARE AVE,MASON CITY,50401,POINT (-93.199494 43.155945),17,Cerro Gordo
3064,Shugar's Super Valu / Adel,804 NILE KINNICK DR S,ADEL,50003,POINT (-94.01679600000001 41.61025),25,Dallas
2628,Hy-Vee Food Store / Eldora,1616 EDGINGTON,ELDORA,50627,POINT (-93.103764 42.360631),42,Hardin
4285,Fareway Stores #922 / New Hampton,102 S WATER AVE,NEW HAMPTON,50659,POINT (-92.312904 43.058019),19,Chickasaw
2849,CVS Pharmacy #10162 / Des Moines,3151 SE 14TH ST,DES MOINES,50320,POINT (-93.59678 41.557061),77,Polk
4502,Neighborhood Mart / Waterloo,"2100, LAFAYETTE ST",WATERLOO,50703,POINT (-92.31397200000002 42.489914),07,Black Hawk
4073,"Uptown Liquor, Llc",306 HWY 69 SOUTH,FOREST CITY,50436,POINT (-93.633306 43.261538),95,Winnebago
4049,No Frills Supermarkets / Glenwood,423 SHARP ST,GLENWOOD,51534,POINT (-95.742987 41.04635),65,Mills
4298,Terry's Food Center,305 CRISMAN ST,DYSART,52224,POINT (-92.30769 42.171406),86,Tama
4909,Pump N Pak Rock Valley,"1004, MAIN ST",ROCK VALLEY,51247,POINT (-96.294824 43.200164),84,Sioux
3573,Quik Shop Foods / Four M In,405 S MADISON,OTTUMWA,52501,POINT (-92.41041400000002 40.999034),90,Wapello
4630,EZ Stop / Davenport,2923 BRADY ST,DAVENPORT,52803,POINT (-90.570603 41.549887),82,Scott
4703,Walgreens #00910 / Sioux City,100 PIERCE ST,SIOUX CITY,51101,POINT (-96.404911 42.490838),97,Woodbury
2233,Forbes Liquor Locker / remi,2508 ENTERPRISE AVE,SPIRIT LAKE,51360,POINT (-95.126786 43.416433),30,Dickinson
3783,Dyno's Wine and Spirits / Pocahontas,14 1/2 E ELM,POCAHONTAS,50574,POINT (-94.66731100000001 42.732607),76,Pocahontas
2559,Hy-Vee Food Store / Albia,301 HWY. 34 WEST,ALBIA,52531,POINT (-92.810772 41.015469),68,Monroe
3877,Target Store T-2041 / Des Moines,5901 DOUGLAS AVE,DES MOINES,50322,POINT (-93.699209 41.629529),77,Polk
4771,Cenex Gas Station,"502, E AVE NW",CEDAR RAPIDS,52402,POINT (-91.680323 41.977958),57,Linn
2587,Hy-Vee Food Store / Johnston,5750 MERLE HAY ROAD,JOHNSTON,50131,POINT (-93.697731 41.665172),77,Polk
3989,Liquor On The Corner / Cherokee,300 E MAIN ST,CHEROKEE,51012,POINT (-95.547298 42.749597),18,Cherokee
3624,Wal-Mart 0748 / Newton,300 IOWA SPEEDWAY DR,NEWTON,50208,POINT (-93.014458 41.697436),50,Jasper
4512,Metro Mart #4 / Waterloo,"2332, FALLS AVE",WATERLOO,50701,POINT (-92.376365 42.500152),07,Black Hawk
3612,B and C Liquor / Maquoketa,509 E PLATT,MAQUOKETA,52060,POINT (-90.659692 42.06922000000001),49,Jackson
4895,Big Discount Liquor,5427 CENTER POINT RD NE,CEDAR RAPIDS,52402,POINT (-91.668086 42.033480000000004),57,Linn
3013,Keith's Foods,207 E LOCUST ST,BLOOMFIELD,52537,POINT (-92.412847 40.752691),26,Davis
4943,Eldon Kwik Shop,"205, 4th ST",ELDON,52554,POINT (-92.222591 40.917809),90,Wapello
4070,Grieder Beverage Depot,708  13TH ST,BELLE PLAINE,52208,POINT (-92.278 41.897054),06,Benton
4687,Kum & Go #517 / Cedar Rapids,3132 1st AVE NE,CEDAR RAPIDS,52402,POINT (-91.634941 42.009649),57,Linn
4690,Super Stop and Shop / Baldwin,5358 HWY 64,BALDWIN,52207,POINT (-90.834314 42.073361),49,Jackson
3735,C B Liquor,1202 A AVE EAST,OSKALOOSA,52577,POINT (-92.631487 41.296286),10,Buchanan
2205,Ding's Honk And Holler,900 E WASHINGTON,CLARINDA,51632,POINT (-95.027238 40.739231),73,Page
4616,C's Spencer Liquor,719 2ND AVE W,SPENCER,51301,POINT (-95.147741 43.14521),21,Clay
4400,Kum & Go #174 / OSKALOOSA,413 A AVE W,OSKALOOSA,52577,POINT (-92.648951 41.296226),62,Mahaska
3484,Jeff's Foods,110 W CEDAR ST,MARCUS,51035,POINT (-95.808579 42.825681),18,Cherokee
4612,ATC Liquor,"214, MYRTLE ST",DAVENPORT,52802,POINT (-90.589149 41.521586),82,Scott
2527,Hy-Vee Food Store #5 / Des Moines,1107 SE ARMY POST RD,DES MOINES,50315,POINT (-93.602372 41.526289),77,Polk
3655,M and M Liquor Store,2763 FLOYD BLVD,SIOUX CITY,51104,POINT (-96.380853 42.518796),97,Woodbury
3774,Eagle Country Market / Dubuque,1800 ELM ST,DUBUQUE,52001,POINT (-90.665763 42.511105),31,Dubuque
4692,Walgreens #05886 / Keokuk,1215 MAIN ST,KEOKUK,52632,POINT (-91.389502 40.40168),56,Lee
4008,Sioux Valley Spirits,116 E MAIN ST,ANTHON,51004,POINT (-95.867335 42.388268),97,Woodbury
4018,Hometown Foods / Gladbrook,310 SECOND ST PO BOX 249,GLADBROOK,50635,POINT (-92.716422 42.187653),48,Iowa
2958,Dahl's / E 33rd,3400 E 33 ST,DES MOINES,50317,POINT (-93.551522 41.62616),77,Polk
4209,Wal-Mart 5748 / Grimes,2150 EAST 1ST ST,GRIMES,50111,POINT (-93.771698 41.688332),77,Polk
4562,Casey's General Store #2989 / Mechan,206 SHORT ST,MECHANICSVILLE,52306,,16,Cedar
3915,Sac City Food Pride,106  S 16 ST,SAC CITY,50583,POINT (-95.002637 42.422404),81,Sac
4252,Fareway Stores #840 / Monticello,433 N FARLEY ST,MONTICELLO,52310,POINT (-91.191385 42.241939),53,Jones
3769,Wal-Mart 0753 / Cedar Fall,525 BRANDILYNN BLVD,CEDAR FALLS,50613,POINT (-92.440394 42.485042),07,Black Hawk
4847,Slagle Foods LeClaire,1301 EAGLE RIDGE RD,LECLAIRE,52753,POINT (-90.359813 41.587349),82,Scott
2954,Dahl's / Ingersoll,3425 INGERSOLL,DES MOINES,50300,POINT (-93.663337 41.586313),77,Polk
2594,Hy-Vee Food Store / Sioux City,4500 SERGEANT ROAD,SIOUX CITY,51106,POINT (-96.346969 42.447396),97,Woodbury
2956,Dahl's / Fleur Dr,4121 FLEUR DRIVE,DES MOINES,50300,POINT (-93.64492 41.546838),77,Polk
4228,Fareway Stores #462 / Vinton,501 A AVE,VINTON,52349,POINT (-92.025603 42.166166),06,Benton
4119,Target Store T-2526 / Cedar Falls,214 VIKING PLAZA DR,CEDAR FALLS,50613,POINT (-92.443134 42.480862),07,Black Hawk
4711,Walgreens #06154 / Dubuque,2260 JOHN F KENNEDY RD,DUBUQUE,52002,POINT (-90.720519 42.511486),31,Dubuque
4798,Walgreens #05721 / Des Moines,3140 SE 14TH ST,DES MOINES,50320,POINT (-93.596914 41.555952),77,Polk
4269,Tipton Family Foods,610 CEDAR ST,TIPTON,52772,POINT (-91.128389 41.771753),16,Cedar
2534,Hy-Vee Drugtown / Urbandale,8601 DOUGLAS,URBANDALE,50322,POINT (-93.737447 41.62941),77,Polk
2963,Dahl's / Clive,15500 HICKMAN,CLIVE,50325,POINT (-93.831913 41.614713),77,Polk
4897,Gasland #102 / Burlington,1703 MT PLEASANT ST,BURLINGTON,52601,POINT (-91.121931 40.819885),29,Des Moines
4027,Wal-Mart 1621 / Centerville,23148 HWY 5,CENTERVILLE,52544,POINT (-92.867849 40.70856),04,Appanoose
2659,Hy-Vee Food Store / Corydon,303 E JEFFERSON ST,CORYDON,50060,POINT (-93.31531 40.757159),93,Wayne
4297,Discount Liquor / Cedar Rapids,2933  1ST AVE SE,CEDAR RAPIDS,52402,POINT (-91.63487100000002 42.007104),57,Linn
4748,Walgreens #06186 / Davenport,4011 E 53RD ST,DAVENPORT,52807,POINT (-90.514255 41.574851),82,Scott
4105,Fareway Stores #426 / Nevada,1505 SOUTH B AVE,NEVADA,50201,POINT (-93.439899 42.009797),85,Story
3872,Target Store T-0086 / Dubuque,3500 DODGE ST,DUBUQUE,52003,POINT (-90.720589 42.491944),31,Dubuque
2585,Hy-Vee Wine and Spirits / Algona,1516 HIGHWAY 169 NORTH,ALGONA,50511,POINT (-94.236003 43.081288),55,Kossuth
4304,Downtown Pantry / Des Moines,208  4TH ST,DES MOINES,50309,POINT (-93.621669 41.585083),77,Polk
2618,Hy-Vee Drugstore #6 / Cedar Rapids,505 BOYSON RD NE,CEDAR RAPIDS,52402,POINT (-91.63913 42.04671),57,Linn
4110,"Brothers Market, Inc.",706 HIGHWAY 57,PARKERSBURG,50665,POINT (-92.785196 42.570357),12,Butler
4188,"Main St. Market, Inc.",882 MAIN ST,HOLY CROSS,52053,POINT (-90.995943 42.600941),31,Dubuque
2661,Hy-Vee Food Store / Sheldon,1989 PARK ST,SHELDON,51201,POINT (-95.831721 43.186038),71,O'Brien
4331,Moore's Foods,303 HIGHWAY 150 N,WEST UNION,52175,POINT (-91.814402 42.965065),33,Fayette
4024,Wal-Mart 1546 / Iowa Falls,840 S OAK,IOWA FALLS,50126,POINT (-93.262446 42.503407),42,Hardin
3858,Harolds Jack N Jill / Davenport,6723 NW BLVD UNIT 2,DAVENPORT,52806,POINT (-90.609747 41.589369),82,Scott
4628,Oelwein Bottle and Can Inc.,137 2nd AVE SE,OELWEIN,50662,POINT (-91.910523 42.67564),33,Fayette
4708,No Frills Supermarkets #803 / Glenwo,423 SHARP ST,GLENWOOD,51534,POINT (-95.742987 41.04635),65,Mills
4531,Casey's General Store #2626 / Afton,501 N DOUGLAS ST,AFTON,50830,POINT (-94.197613 41.031441),88,Union
4345,Lucky Mart,1031 WEST ST,GRINNELL,50112,POINT (-92.727379 41.745903),79,Poweshiek
4077,Xo Food And Liquor,428 FRANKLIN ST,WATERLOO,50703,POINT (-92.33464100000002 42.501602),07,Black Hawk
3521,Ameristar Casino / Council Bluffs,2200 RIVER ROAD,COUNCIL BLUFFS,51501,POINT (-95.909384 41.242291),78,Pottawattamie
4691,Railroad Street Tobacco and Spirits,701 RAILROAD ST,IOWA FALLS,50126,POINT (-93.265716 42.518710000000006),42,Hardin
2596,Hy-Vee / Regal Liquors and Video,2453 NORTH COURT,OTTUMWA,52501,POINT (-92.408085 41.049854),90,Wapello
3576,Liquor Store / Hartley,10  3RD ST NW,HARTLEY,51346,POINT (-95.477367 43.184821),71,O'Brien
3728,Brewski's Beverage,726 CREEK TOP,COUNCIL BLUFFS,51503,POINT (-95.854809 41.262316),78,Pottawattamie
4862,Pronto Market / Kingsley,101 MAIN ST,KINGSLEY,51028,POINT (-95.967322 42.58707400000001),75,Plymouth
4864,CLINTON LIQUOR & CONVENIENCE STORE,1641 S BLUFF BLVD,CLINTON,52733,POINT (-90.225022 41.833351),23,Clinton
4526,Sub Xpress & Gas,4307 W LOCUST ST,DAVENPORT,52804,POINT (-90.637353 41.538148),82,Scott
3531,Osage Liquors,508 MAIN ST,OSAGE,50461,POINT (-92.814028 43.284116),66,Mitchell
2573,Hy-Vee Food Store / Muscatine,2400 2ND AVE,MUSCATINE,52761,POINT (-91.035138 41.451349),70,Muscatine
4678,Fareway Stores #124 / Adel,804 NILE KINNICK DR,ADEL,50003,POINT (-94.01679600000001 41.61025),25,Dallas
4481,THE LIQUOR HOUSE,425 GILBERT ST,IOWA CITY,52240,POINT (-91.530225 41.656031),52,Johnson
3910,Riverside Casino And Resort,3184 HIGHWAY 22,RIVERSIDE,52327,POINT (-91.531499 41.496387000000006),92,Washington
4340,Dahl's Foods / Ames,3121 GRAND AVE,AMES,50010,POINT (-93.620697 42.053378),85,Story
4463,Casey's General Store #3031 / Garner,145 US HWY 18 W,GARNER,50438,POINT (-93.603007 43.105833),41,Hancock
3841,Hartig Drug Company #2 / Locust,157 LOCUST ST,DUBUQUE,52001,POINT (-90.665439 42.495308),31,Dubuque
4707,Walgreens #05119 / Clinton,806 S  4TH ST,CLINTON,52732,POINT (-90.193208 41.837297),23,Clinton
3695,Mrs. B's Liquor,623 S MARION ST,REMSEN,51050,POINT (-95.977022 42.808951),75,Plymouth
4013,Wal-Mart 0841 / Tipton,1126 HIGHWAY 38 NORTH,TIPTON,52772,POINT (-91.03069 41.438006),16,Cedar
3631,Audubon Food Pride,104 MARKET ST PO BOX 206,AUDUBON,50025,POINT (-94.93625 41.723057),05,Audubon
4268,Fareway Stores #531 / Algona,1905 HIGHWAY 18 E,ALGONA,50511,POINT (-94.214064 43.082782),55,Kossuth
4681,Spirits & Such,100 E ELM ST,WEST UNION,52175,POINT (-91.807891 42.961269),33,Fayette
4006,Larchwood Offsale,913 BROWN ST PO BOX 326,LARCHWOOD,51241,POINT (-96.435452 43.453843),60,Lyon
4296,Circle B Market,111 MAIN ST,KEOSAUQUA,52565,POINT (-91.962466 40.7294),89,Van Buren
4548,Casey's General Store #2594 / Walker,401 GRANT ST,WALKER,52352,POINT (-91.781945 42.283922),57,Linn
4203,Liquor and Tobacco Outlet /,620 W BREMER AVE,WAVERLY,50677,POINT (-92.47898 42.725694),09,Bremer
4426,LIQUOR AND GROCERY DEPOT,114 CENTRAL ST N Suite 1,MARSHALLTOWN,50158,POINT (-93.385376 41.190159),64,Marshall
3878,Liquor and Tobacco Outlet /,2128 COLLEGE ST,CEDAR FALLS,50613,POINT (-92.455801 42.518018000000005),07,Black Hawk
4223,STATION MART LIQUOR AND TOBACCO,1119 RIVER FOREST RD,EVANSDALE,50707,POINT (-92.297765 42.462807),07,Black Hawk
4091,Fareway Stores #705 / Clear Lake,910 HWY 18 W,CLEAR LAKE,50428,POINT (-93.613385 43.105949),17,Cerro Gordo
4443,Palo Mini Mart,1204 1ST ST,PALO,52324,POINT (-91.795808 42.070316),57,Linn
4230,Fareway Stores #106 / Clive,10151 UNIVERSITY AVE,CLIVE,50325,POINT (-93.756489 41.600511),77,Polk
4814,"Byron Supermarket, Inc.",306 BYRON AVE,WATERLOO,50702,POINT (-92.353141 42.480288),07,Black Hawk
3400,Last Stop Beverage Shop,2839 E. UNIVERSITY,DES MOINES,50317,POINT (-93.561517 41.600476),77,Polk
2844,CVS Pharmacy #8547 / Iowa City,2425 MUSCATINE AVE,IOWA CITY,52240,POINT (-91.50008800000002 41.649547),52,Johnson
4038,No Frills Supermarkets / Denison,501 HIGHWAY 39 NORTH,DENISON,51442,POINT (-95.368652 42.02183),24,Crawford
2955,Dahl's / Beaver,1819 BEAVER,DES MOINES,50310,POINT (-93.672695 41.610525),77,Polk
4861,The Station / Cedar Rapids,3645 STONE CREEK CIRCLE SW,CEDAR RAPIDS,52404,POINT (-91.747514 41.943626),57,Linn
2838,CVS Pharmacy #8658 / Davenport,1655 W KIMBERLY RD,DAVENPORT,52806,POINT (-90.600088 41.559969),82,Scott
4162,Fareway Stores #963 / Cedar Rapids,4220  16TH AVE SW,CEDAR RAPIDS,52404,POINT (-91.726726 41.963791),57,Linn
3785,Southside Tobacco and Liquor,2424 SW 9TH ST,DES MOINES,50315,POINT (-93.624729 41.56373),77,Polk
4801,Walgreens #05852 / Des Moines,3030 UNIVERSITY AVE,DES MOINES,50311,POINT (-93.658747 41.60037),77,Polk
4627,Casey's General Store #1388 / Sully,"807, 1st ST",SULLY,50251,POINT (-92.844307 41.581097),50,Jasper
4083,Fareway Stores #909 / Ankeny,109 SE ORALABOR RD,ANKENY,50021,POINT (-93.59949600000002 41.702811),77,Polk
2961,Dahl's / Ep True / Wdm,5003 E P TRUE PARKWAY,WEST DES MOINES,50265,POINT (-93.772517 41.571897),77,Polk
2367,Spencer's Grocery,101 SOUTH BURNETT,SHENANDOAH,51601,POINT (-95.381935 40.765934),73,Page
4617,Lickety Liquor,2501 HUBBELL AVE,DES MOINES,50317,POINT (-93.570489 41.607817),77,Polk
3943,Good and Quick Co,519 LINCOLNWAY,NEVADA,50201,POINT (-93.464816 42.022781),85,Story
4160,Fareway Stores #034 / Iowa City,2765 COMMERCE DR,IOWA CITY,52240,POINT (-91.48043 41.629617),52,Johnson
4190,Fareway Stores #888 / Jefferson,1207 N ELM ST,JEFFERSON,50129,POINT (-94.377667 42.026833),37,Greene
4760,Walgreens #07455 / Waterloo,111 W RIDGEWAY AVE,WATERLOO,50701,POINT (-92.357476 42.469401),07,Black Hawk
2529,Hy-Vee Drugstore #4 / Cedar Rapids,4825 JOHNSON AVE NW,CEDAR RAPIDS,52405,POINT (-91.73337 41.968343),57,Linn
4135,Fareway Stores #925 / Altoona,620 SE 8TH ST,ALTOONA,50009,POINT (-93.458606 41.644082000000004),77,Polk
4301,Sahota Food Mart,1805 SE 14TH ST,DES MOINES,50320,POINT (-93.59684900000002 41.57222),77,Polk
2839,CVS Pharmacy #8659 / Davenport,1777 DIVISION ST,DAVENPORT,52804,,82,Scott
4139,University Groceries,2121 UNIVERSITY AVE,DES MOINES,50314,,77,Polk
4720,Chariton BP,"107, EAST GRACE",CHARITON,50049,POINT (-93.293312 41.005258),59,Lucas
4289,Fareway Stores #062 / Waukon,777  11TH AVE SW,WAUKON,52172,POINT (-91.484321 43.256623),03,Allamakee
4066,Xpress Liquor,1201 NORTH JEFFERSON STE 100,INDIANOLA,50125,,91,Warren
4820,Lil' Chubs Corner Stop,712 S OAK ST,INWOOD,51240,POINT (-96.430827 43.30226),60,Lyon
2837,CVS Pharmacy #8544 / Waterloo,1825 E San Marnan,WATERLOO,50702,POINT (-92.321632 42.466956),07,Black Hawk
3929,Liquor And Tobacco Outlet,515 1/2 BROADWAY ST,WATERLOO,50703,POINT (-92.345106 42.510792),07,Black Hawk
4572,Grundy Center Family Foods,"1400, G AVE",GRUNDY CENTER,50638,POINT (-92.782283 42.36157),38,Grundy
4436,Kum & Go #216  Ames,203 WELCH AVE,AMES,50010,POINT (-93.650125 42.021236),85,Story
4140,Fareway Stores #900 / Euclid,100 EUCLID AVE,DES MOINES,50313,POINT (-93.618724 41.627684),77,Polk
3492,Jubilee Foods / Rockwell City,319 COURT ST,ROCKWELL CITY,50579,POINT (-94.632453 42.394636),13,Calhoun
4764,New Star / Fort Dodge,1923 5TH AVE S,FORT DODGE,50501,POINT (-94.170859 42.501169),94,Webster
4257,Broadway Liquor,821 BROADWAY,WATERLOO,50703,POINT (-92.345144 42.513772),07,Black Hawk
2178,"Double ""D"" Liquor Store",618 ROSSVILLE ROAD,WAUKON,52172,POINT (-91.473634 43.262114),03,Allamakee
4040,No Frills Supermarkets / Council Blu,1801 VALLEY VIEW DR,COUNCIL BLUFFS,51503,POINT (-95.81877500000002 41.24394),78,Pottawattamie
4146,Fareway Stores #561 / Waverly,220 W BREMER AVE,WAVERLY,50677,POINT (-92.473476 42.725748),09,Bremer
4250,Fareway Stores #882 / Eldora,1232 14TH ST,ELDORA,50627,POINT (-93.10077 42.361055),42,Hardin
4011,Jim and Charlies Affiliated,121 NORTH CLINTON,ALBIA,52531,POINT (-92.808389 41.028644),68,Monroe
4161,Fareway Stores #950 / Iowa City,2530 WESTWINDS DR,IOWA CITY,52246,POINT (-91.575636 41.650842),52,Johnson
2840,CVS Pharmacy #8633 / Bettendorf,2002 SPRUCE HILLS DR,BETTENDORF,52722,POINT (-90.503814 41.550134),82,Scott
2583,Hy-Vee Food Store / Washington,528 S HWY 1,WASHINGTON,52353,POINT (-91.442874 41.898505),92,Washington
4235,Fareway Stores #395 / Webster City,942  2ND ST,WEBSTER CITY,50595,POINT (-93.827718 42.469488),40,Hamilton
3987,Wine and Spirits Shoppe Of,111 S PHILLIPS ST,ALGONA,50511,POINT (-94.226874 43.068382),55,Kossuth
3986,Siouxland Beverage,1203 5 ST,SIOUX CITY,51101,POINT (-96.394671 42.495324),97,Woodbury
4310,Fareway Stores #502 / Cherokee,205 WEST BLUFF ST,CHEROKEE,51012,POINT (-95.551866 42.75508),18,Cherokee
3969,"R 'n D's Liquor, Llc",205 NE 6TH ST,GREENFIELD,50849,POINT (-94.45329 41.306142),01,Adair
4153,Fareway Stores #067 / Evansdale,215 S EVANS RD,EVANSDALE,50707,POINT (-92.287834 42.475631),07,Black Hawk
4271,Fareway Stores #827 / Centerville,305 S 18TH ST,CENTERVILLE,52544,POINT (-92.86793 40.73112),04,Appanoose
4818,Decorah Mart,"303, COLLEGE DR",DECORAH,52101,POINT (-91.796988 43.307662),96,Winneshiek
2475,"Private Cellar, Inc.",206 2ND AVE NE,WEST BEND,50597,POINT (-94.443 42.96298),55,Kossuth
3744,Payless Foods / Dyersville,733 16TH AVE SE,DYERSVILLE,52040,POINT (-91.115769 42.470204),31,Dubuque
4251,Aj's Liquor / Ames,4518 MORTENSON RD STE 109,AMES,50014,,85,Story
3664,Shade Tree Liquors,90 10th ST S,NORTHWOOD,50459,POINT (-93.218339 43.443739),98,Worth
4197,Fareway Stores #014 / Sergeant Bluff,700  1ST ST,SERGEANT BLUFF,51054,POINT (-96.353078 42.400504),97,Woodbury
4806,Giri's Liquor Store / West Liberty,"1006, N COLUMBUS ST",WEST LIBERTY,52776,POINT (-91.260581 41.578585),70,Muscatine
4035,B and B West,3105 HUDSON RD,CEDAR FALLS,50613,POINT (-92.465838 42.509248),07,Black Hawk
2843,CVS Pharmacy #8526 / Cedar Rapids,4116 CENTER POINTE RD,CEDAR RAPIDS,52402,POINT (-91.665139 42.020729),57,Linn
4036,Five Star Snacks and More,315 FLETCHER AVE,WATERLOO,50701,POINT (-92.367142 42.489119),07,Black Hawk
4793,Fort Madison Fast Break,5002 AVENUE O,FORT MADISON,52627,POINT (-91.377416 40.624074),56,Lee
4697,Southside Liquor & Tobacco / Iowa Ci,601 HOLLYWOOD BLVD,IOWA CITY,52240,POINT (-91.52741 41.643807),52,Johnson
4501,Kum & Go #134 / Fairfield,1601 W BURLINGTON AVE,FAIRFIELD,52556,POINT (-91.981752 41.006447),51,Jefferson
2845,CVS Pharmacy #4816 / Council Bluffs,545 W WASHINGTON ST,COUNCIL BLUFFS,51503,POINT (-95.344053 41.472968),78,Pottawattamie
2660,HY-VEE FOOD STORE / SIOUX CENTER,1951 S MAIN AVE,SIOUX CENTER,51250,POINT (-96.175695 43.056471),84,Sioux
2132,Spirits and Such,100 E ELM,WEST UNION,52175,POINT (-91.807891 42.961269),33,Fayette
4712,Walgreens #11942 / Dubuque,345 E 20TH ST,DUBUQUE,52001,POINT (-90.66694 42.512092),31,Dubuque
4747,Walgreens #11709 / Davenport,1805 BRADY ST,DAVENPORT,52803,POINT (-90.57401 41.537795),82,Scott
4835,Point Liquor & Tobacco,4107 CENTER POINT RD NE,CEDAR RAPIDS,52402,POINT (-91.665196 42.02088),57,Linn
3772,Shop N Save #1 / Mlk Pkwy,2127 M L KING JR PKWY,DES MOINES,50314,,77,Polk
3635,Clark's Food Mart / Ogden,302 WEST WALNUT ST,OGDEN,50212,POINT (-94.03117800000001 42.039076),08,Boone
4812,Liquor Beer & Tobacco Outlet / Charl,1908 CLARK ST,CHARLES CITY,50616,POINT (-92.661881 43.05913400000001),34,Floyd
3016,Super Valu / bender's,200 SOUTH STATE ST,DENVER,50622,POINT (-92.33724 42.672008),09,Bremer
2478,Prairie Meadows,ONE PRAIRIE MEADOWS DRIVE,ALTOONA,50009,,77,Polk
4229,Fareway Stores #790 / Harlan,1910  23RD ST,HARLAN,51537,POINT (-95.339845 41.650132),83,Shelby
3688,Fredericksburg Food Center,100 W MAIN ST,FREDERICKSBURG,50630,POINT (-92.19947300000001 42.965098),19,Chickasaw
4393,KUM & GO #206 / CLIVE,1725 NW 86TH ST,CLIVE,50325,POINT (-93.736227 41.607327),77,Polk
4277,Cork It!,769 PROSPECT ST SW,LE MARS,51031,POINT (-96.178219 42.776296),75,Plymouth
3529,A To Z Liquor and Smoke Shop,114 S SECOND,CHEROKEE,51012,POINT (-95.55132 42.749013),18,Cherokee
4118,Lake View Redemption Center,502 5th Street,LAKE VIEW,51450,POINT (-95.051539 42.307764000000006),81,Sac
3756,Main Street Liquors / Manning,316 MAIN ST,MANNING,51455,POINT (-95.065122 41.908573),14,Carroll
3698,Ingersoll Wine Merchants,1300  50TH ST,WEST DES MOINES,50266,POINT (-93.771159 41.590871),77,Polk
3797,The Liquor Store / Davenport,211  W 53RD ST,DAVENPORT,52806,POINT (-90.57611300000002 41.574536),82,Scott
2600,Hy-Vee Food Store / Oskaloosa,110  SO  D  ST,OSKALOOSA,52577,,62,Mahaska
4284,Fareway Stores #559 / Iowa Falls,500 IOWA ST,IOWA FALLS,50126,POINT (-93.263746 42.522324),42,Hardin
4191,Fareway Stores #995 / Pella,2010 WASHINGTON ST,PELLA,50219,POINT (-92.941983 41.412241),63,Marion
4276,Wj's Liquor,107 N MILL ST,LAKE MILLS,50450,POINT (-93.535032 43.419668),95,Winnebago
3045,Britt Food Center,8 2ND ST NW,BRITT,50423,POINT (-93.801917 43.098696),41,Hancock
4845,3rd St Convenience,"216, 3RD ST SE",CEDAR RAPIDS,52401,POINT (-91.666081 41.977896),57,Linn
4534,D & B Foods,141 W GILLET ST,PRESTON,52069,POINT (-90.39584400000001 42.050312),49,Jackson
4308,Keystone Liquor and Wine / Coralvill,517  2ND ST STE 2,CORALVILLE,52241,POINT (-91.574095 41.671543),52,Johnson
4839,DS Services LLC,87 8th ST N,Northwood,50459,POINT (-93.220898 43.444481),98,Worth
4717,Walgreens #05512 / Bettendorf,3425 MIDDLE RD,BETTENDORF,52722,POINT (-90.485409 41.550718),82,Scott
3855,Dyno's Wine and Spirits / Storm Lake,1201 1/2 LAKESHORE DR,STORM LAKE,50588,,11,Buena Vista
4874,Z's Quickbreak,"201, E WASHINGTON ST",MOUNT PLEASANT,52641,POINT (-91.551598 40.965272),44,Henry
4233,Fareway Stores #815 / Cresco,112 S ELM ST,CRESCO,52136,POINT (-92.116902 43.371089),45,Howard
4492,Casey's General Store #2773 / Cedar,3625 EDGEWOOD RD SW,CEDAR RAPIDS,52404,POINT (-91.715911 41.94236600000001),57,Linn
2964,Dahl's / Ankeny,1802 N ANKENY BLVD,ANKENY,50023,POINT (-93.600365 41.747345),77,Polk
3614,Ida Grove Food Pride,200 OAK GROVE DR,IDA GROVE,51445,POINT (-95.471843 42.350621),47,Ida
4067,Freeman Foods,268 8TH AVE,WELLMAN,52356,POINT (-91.837922 41.465008),90,Wapello
4280,Slagle's Grocery / Le Claire,1301 EAGLE RIDGE RD,LE CLAIRE,52753,POINT (-90.359813 41.587349),82,Scott
4568,Select Mart   Floyd Blvd,4103 FLOYD BLVD,SIOUX CITY,51108,POINT (-96.358413 42.54202),97,Woodbury
3715,Kimberly Mart / Davenport,1714 E KIMBERLY RD,DAVENPORT,52807,POINT (-90.550657 41.556966),82,Scott
3831,The Market Of Madrid,301 ANNEX RD,MADRID,50156,POINT (-93.815365 41.87894000000001),08,Boone
3690,Target Store T-1792 / Waterloo,1501 E SAN MARNAN,WATERLOO,50702,POINT (-92.325387 42.464521),07,Black Hawk
4493,Casey's General Store #2850 / Cedar,5655 C ST SW,CEDAR RAPIDS,52404,POINT (-91.637306 41.922505),57,Linn
4791,Walgreens #05470 / Sioux City,4650 MORNINGSIDE AVE,SIOUX CITY,51106,POINT (-96.347085 42.470416),97,Woodbury
4583,Kum & Go #5100 / Manson,208 MAIN ST,MANSON,50563,POINT (-94.534532 42.517855),13,Calhoun
2238,Adventureland Inn,3200 Adventureland Dr,ALTOONA,50009,POINT (-93.49924000000001 41.658513),77,Polk
2554,Hy-Vee Food Store / Davenport,3019 ROCKINGHAM ROAD,DAVENPORT,52802,POINT (-90.620725 41.510523),82,Scott
3842,Bancroft Liquor Store,107 N PORTLAND ST PO BX 222,BANCROFT,50517,POINT (-94.218 43.29355),55,Kossuth
4800,Walgreens #07968 / Des Moines,6200 SE 14TH ST,DES MOINES,50320,POINT (-93.596871 41.528203),77,Polk
4085,Save More Foods / Waterloo,1975 FRANKLIN ST,WATERLOO,50703,POINT (-92.315215 42.495394),07,Black Hawk
2568,Hy-Vee Food Store #4 / Cedar Rapids,1556 FIRST AVENUE NE,CEDAR RAPIDS,52402,POINT (-91.650755 41.988967),57,Linn
4272,Fareway Stores #407 / Esterville,1108 CENTRAL AVE,ESTHERVILLE,51334,POINT (-94.829963 43.402096),32,Emmet
4327,Quick Mart / Hiawatha,655 ROBBINS RD,HIAWATHA,52233,POINT (-91.672961 42.044452),57,Linn
4652,Brady Mart Food & Liquor,"3107, BRADY ST",DAVENPORT,52803,POINT (-90.569719 41.55216),82,Scott
4739,Walgreens #05306 / Council Bluffs,301 W BENNETT AVE,COUNCIL BLUFFS,51503,POINT (-95.828199 41.24475900000001),78,Pottawattamie
4557,Hometown Foods / Traer,420 SECOND ST,TRAER,50675,POINT (-92.468086 42.193386),86,Tama
3798,Old Calliope Liquor,2021 AVE E,HAWARDEN,51023,POINT (-96.487949 43.008899),84,Sioux
4275,Fareway Stores #980 / Knoxville,1308 S LINCOLN ST,KNOXVILLE,50138,POINT (-93.109473 41.308103),63,Marion
3003,Super Valu / Mark's,820 E. MAIN STREET,LAKE CITY,51449,POINT (-94.724867 42.267363),13,Calhoun
4553,Casey's General Store #1892 / Sheffi,702 E GILMAN ST,SHEFFIELD,50475,POINT (-93.20320700000002 42.893235),35,Franklin
4623,Casey's General Store #1493 / Van Me,"700, DEBRA DR",VAN METER,50261,POINT (-93.951253 41.533177),25,Dallas
4214,New Star Liquor / Lafayet / Waterloo,1309 LAFAYETTE ST,WATERLOO,50703,POINT (-92.3272 42.494092),07,Black Hawk
3763,Main Street Liquors / Hawarden,911 CENTRAL AVE,HAWARDEN,51023,POINT (-96.48518900000002 42.996100000000006),84,Sioux
4332,Fast Mart / University Ave,1621 UNIVERSITY AVE,DES MOINES,50314,POINT (-93.63996000000002 41.600477),77,Polk
4891,Schottsy's Liquor,109 5th ST,SIBLEY,51249,POINT (-95.759943 43.403935),72,Osceola
4802,Walgreens #07452 / Des Moines,4415 DOUGLAS AVE,DES MOINES,50310,POINT (-93.678747 41.62949),77,Polk
3876,Affiliated Foods Of Manson,1101 MAIN ST PO BOX 535,MANSON,50563,POINT (-94.534319 42.530636),13,Calhoun
3962,Durant Street Country Stop,618 DURANT ST,HARLAN,51537,POINT (-95.318597 41.656803),83,Shelby
4033,"Mcgregor's Top Shelf, Llc",221 MAIN ST,MCGREGOR,52157,POINT (-91.176171 43.02398),22,Clayton
4535,Casey's General Store #2421 / Dubuqu,4003 PERU RD,DUBUQUE,52001,POINT (-90.676071 42.539271),31,Dubuque
4130,"Boyd Grocery, Inc.",20611 HWY 1 N,KEOSAUQUA,52565,,89,Van Buren
4725,Casey's General Store #1548 / Ankeny,"2905, W  1ST ST",ANKENY,50023,POINT (-93.638498 41.731708),77,Polk
4295,Nat Food Mart #1 / Hubbell,3804 HUBBELL,DES MOINES,50317,POINT (-93.541351 41.630849),77,Polk
3542,Chuck's Sportsmans Beverage,244 W 4TH ST,ST ANSGAR,50472,POINT (-92.921298 43.378499),66,Mitchell
4291,Fareway Stores #597 / Creston,105 E ADAMS ST,CRESTON,50801,POINT (-94.237509 40.715722),88,Union
4590,Casey's General Store #3045 / Cedar,"601, MAIN ST",CEDAR FALLS,50613,POINT (-92.445512 42.532963),07,Black Hawk
4953,Tri Stop,302 HWY 136,LOST NATION,52254,POINT (-90.817528 41.967498),23,Clinton
4106,Hartig Drug Co. / JFK Rd / Dubuque,2255 JOHN F KENNEDY RD,DUBUQUE,52002,POINT (-90.72051800000001 42.511352),31,Dubuque
3682,Jumbo's,110 E MAIN ST,WESLEY,50483,POINT (-93.990256 43.088341),55,Kossuth
4141,Fareway Stores #975 / SE 22nd / DSM,3000 SE 22ND ST,DES MOINES,50320,POINT (-93.57748 41.556274),77,Polk
3054,Mcnally's Super Valu,1026 MAIN,GRINNELL,50112,,79,Poweshiek
4348,Jeff's Market / Wilton,101 E 4TH,WILTON,52778,POINT (-91.016579 41.58873),70,Muscatine
4958,Five Corners Liquor & Wine,809 E 18TH ST,CEDAR FALLS,50613,POINT (-92.436845 42.5214),07,Black Hawk
3849,Hartig Drug Co #6 / Dyersville,711  16TH AVE SE,DYERSVILLE,52040,POINT (-91.116087 42.470285),31,Dubuque
4544,Casey's General Store #1898 / Osceol,114 N MAIN ST,OSCEOLA,50213,POINT (-93.765678 41.035778),20,Clarke
2658,Hy-Vee Food Store / Mount Ayr,402 S HAYES ST,MOUNT AYR,50854,POINT (-94.233185 40.711775),80,Ringgold
4307,Crossroads Wine and Liquor,117 IOWA AVE,DUNLAP,712-2,POINT (-95.602969 41.854728),43,Harrison
4267,Main Street Market Of Anita,735 MAIN ST,ANITA,50020,POINT (-94.765365 41.444887),15,Cass
4866,Tobacco Hut #18 / Council Bluffs,3134 MANAWA CENTRE DR,COUNCIL BLUFFS,51501,POINT (-95.847514 41.228712),78,Pottawattamie
4133,Mccoy's 1447,1447  2ND ST,WEBSTER CITY,50595,POINT (-93.83997 42.469614),40,Hamilton
4516,Casey's General Store #1569 / Oaklan,205 BROWN ST,OAKLAND,51560,POINT (-95.399804 41.30495),78,Pottawattamie
4373,Kum & Go #74 / West Des Moines,141 S JORDAN CREEK PKWY,WEST DES MOINES,50266,POINT (-93.809458 41.567246),77,Polk
4613,Sparky's One Stop / Carroll,402 E 6th ST,CARROLL,51401,POINT (-94.862532 42.064428),14,Carroll
3440,Hawkeye Pantry,501 LOCUST ST,DES MOINES,50309,POINT (-93.62410400000002 41.586991),77,Polk
4650,Loofts on 9 Liquor Here or Liquor Th,"202, W 4th AVE",SWEA CITY,50590,POINT (-94.30874900000002 43.38496),55,Kossuth
4657,Casey's General Store #2526 / Wellsb,308 N WASHINGTON,WELLSBURG,50680,POINT (-92.925287 42.43855),38,Grundy
3615,Emmetsburg Food Pride,1307 S BROADWAY,EMMETSBURG,50536,,74,Palo Alto
3738,Hartig Drug Company #4 / Dubuque,2225 CENTRAL AVE,DUBUQUE,52001,POINT (-90.671531 42.51384),31,Dubuque
4470,Kum & Go #211 / WATERLOO,1976 FRANKLIN ST,WATERLOO,50703,POINT (-92.314939 42.495308),07,Black Hawk
4116,Lake View Foods,223 MAIN ST,LAKE VIEW,51450,POINT (-95.051702 42.30568400000001),81,Sac
4288,Uptown Liquor and Tobacco,2000 WILEY BLVD SW STE 106,CEDAR RAPIDS,52404,POINT (-91.725777 41.959614),57,Linn
4556,Casey's General Store #2552 / Goldfi,319 E HWY 3,GOLDFIELD,50542,POINT (-93.917008 42.731594),99,Wright
4195,Fareway Stores #792 / Toledo,1005 S COUNTY LINE RD,TOLEDO,52342,POINT (-92.581697 41.984303),86,Tama
4716,Walgreens #11153 / Spencer,800 GRAND AVE,SPENCER,51301,POINT (-95.144927 43.146081),21,Clay
4320,Fareway Stores #470 / Perry,1315 WILLIS AVE,PERRY,50220,POINT (-94.103123 41.838522),08,Boone
4609,Kum & Go #579 / Ankeny,165 SW MAGAZINE RD,ANKENY,50023,POINT (-93.602007 41.717286),77,Polk
4589,Dyno's #53 / Sibley,1026 2nd AVE,SIBLEY,51249,POINT (-95.752119 43.397431),72,Osceola
4828,Casey's General Store #3228 / Marsha,916 E MAIN ST,MARSHALLTOWN,50158,POINT (-92.89647300000001 42.049238),64,Marshall
4313,Fareway Stores #940 / Atlantic,301 POPLAR ST,ATLANTIC,50022,POINT (-95.014379 41.407927),15,Cass
4558,Kum & Go #226 / Sioux City,1373 PIERCE ST,SIOUX CITY,51105,POINT (-96.405013 42.504732),97,Woodbury
4935,Ali's Liquor,1117 E 4TH ST,WATERLOO,50703,POINT (-92.332774 42.507683),07,Black Hawk
4714,Walgreens #05943 / Indianola,1000 N JEFFERSON ST,INDIANOLA,50125,,91,Warren
4439,CENTER POINT FOODS,800 FORD LANE,CENTER POINT,52213,POINT (-91.775735 42.177736),57,Linn
4039,No Frills Supermarkets / Council Blu,1817 W BROADWAY,COUNCIL BLUFFS,51501,POINT (-95.870993 41.261863),78,Pottawattamie
4343,Best Food Mart / Des Moines,4028 NE 14TH ST,DES MOINES,50313,POINT (-93.600504 41.633983),77,Polk
4549,Casey's General Store #2913 / Colo,702 US HWY 65,COLO,50056,POINT (-93.309393 42.014866),85,Story
4738,Casey's General Store #2284 / Counci,"1030, VETERAN MEMORIAL HWY",COUNCIL BLUFFS,51501,POINT (-95.860337 41.219703),78,Pottawattamie
4606,Central Mart / Sioux City,1203 TRI VIEW AVE,SIOUX CITY,51103,POINT (-96.422992 42.494265),97,Woodbury
4679,Walgreens #12393 / Cedar Rapids,5750 C AVE NE,CEDAR RAPIDS,52402,POINT (-91.638516 42.035993000000005),57,Linn
4910,Prime Mart #3 / Waterloo,1008 LAPORTE RD,WATERLOO,50702,POINT (-92.322988 42.47658),07,Black Hawk
3784,Hartig Drug #14 / Independence,200  1ST ST EAST,INDEPENDENCE,50644,POINT (-91.893016 42.468721),10,Buchanan
4752,Gasland / Burlington,1003 SUMMER ST,BURLINGTON,52655,,29,Des Moines
4796,Walgreens #04714 / Des Moines,4555 FLEUR DR,DES MOINES,50321,POINT (-93.64494100000002 41.542957),77,Polk
4668,Clear Lake Payless Foods,20 SOUTH 4TH ST,CLEAR LAKE,50428,POINT (-93.380368 43.135941),17,Cerro Gordo
4656,Casey's General Store #2301 / Ames,17005 HWY 69,AMES,50010,,85,Story
4563,The Molehill,315 MAIN ST,IRETON,51027,POINT (-96.318279 42.97511),84,Sioux
4879,Sam's Mini Mart / Morningside Ave Si,4218 MORNINGSIDE AVE,SIOUX CITY,51106,POINT (-96.352851 42.47063),97,Woodbury
4542,Casey's General Store #2994 / Lauren,520 W MAIN ST,LAURENS,50554,POINT (-94.855561 42.846771),76,Pocahontas
4554,Kum & Go #229 / Sioux City,1821 HAMILTON BLVD,SIOUX CITY,51103,POINT (-96.416824 42.510269),97,Woodbury
4485,DYNO'S 51 / SANBORN,101 W 7TH ST,SANBORN,51248,POINT (-95.656064 43.186035000000004),71,O'Brien
4010,Newman's Thriftway,900 S LOCUST ST,GLENWOOD,51534,POINT (-95.745944 41.038205),65,Mills
4117,Tobacco Shop / Arnolds Park,612 S HIGHWAY 71 UNIT 4,ARNOLDS PARK,51331,POINT (-95.14027400000002 43.361577),30,Dickinson
4723,Walgreens #10557 / Cedar Falls,2509 WHITETAIL DR,CEDAR FALLS,50613,POINT (-92.476153 42.540389),07,Black Hawk
4857,Westland Fast Break,1108 W AGENCY RD,WEST BURLINGTON,52655,POINT (-91.169516 40.811817),29,Des Moines
4904,Larchwood Quick Stop,832 BROADWAY ST,LARCHWOOD,51241,POINT (-96.43415 43.45255),60,Lyon
3734,"Shortee's Pit Stop, Inc.",215 S RERICK AVE,PRIMGHAR,51245,POINT (-95.624301 43.085223),71,O'Brien
3866,Target Store T-1170 / Ames,320 S DUFF,AMES,50010,POINT (-93.61036300000002 42.019875000000006),85,Story
4721,Walgreens #05044 / Burlington,3245 AGENCY ST,BURLINGTON,52601,POINT (-91.140542 40.814794),29,Des Moines
4852,Kum & Go #520 / Cedar Rapids,2604 16th AVE,CEDAR RAPIDS,52404,POINT (-91.707034 41.963064),57,Linn
4417,KUM & GO #76 / ADAIR,109 S 5TH ST,ADAIR,50002,POINT (-93.611475 42.01740300000001),01,Adair
4155,Fareway Stores #949 / Marion,3300 10TH AVE,MARION,52302,POINT (-91.576523 42.036023),57,Linn
4514,Casey's General Store #2813 / Fort D,1230 3RD AVE NW,FORT DODGE,50501,POINT (-94.218425 42.515441),94,Webster
4176,Todds On The Go,235 EDGEWOOD RD NE,CEDAR RAPIDS,52405,,57,Linn
3611,Logan Super Foods,403 E 6TH,LOGAN,51546,POINT (-95.786133 41.644108),43,Harrison
4187,Jensen Liquor North,109  5TH ST,SIBLEY,51249,POINT (-95.759943 43.403935),72,Osceola
4586,Kum & Go #545 / Rockwell City,730 HIGH ST,ROCKWELL CITY,50579,POINT (-94.638843 42.39872),13,Calhoun
2575,Hy-Vee Food Store #1 / Waterloo,2834 Ansborough Ave,WATERLOO,50702,POINT (-92.37662400000002 42.471767),07,Black Hawk
4900,Kwik Stop 4 / Waterloo,515 BROADWAY ST,WATERLOO,50703,POINT (-92.345106 42.510792),07,Black Hawk
4159,Fareway Stores #073 / Council Bluffs,310 MCKENZIE AVE,COUNCIL BLUFFS,51503,POINT (-95.81799100000002 41.280084),78,Pottawattamie
4215,New Star Market #1 / Waterloo,9 N ELK RUN RD,WATERLOO,50703,POINT (-92.25887000000002 42.498751),07,Black Hawk
4397,Quik Trip #514 / Ankeny,802 E 1ST ST,ANKENY,50021,POINT (-93.586368 41.731862),77,Polk
4602,Cheap Smokes / Beer City,58231 190th ST,PACIFIC JUNCTION,51561,POINT (-95.822983 41.041739),65,Mills
4878,Shortee's Pit Stop,"215, S RERICK AVE",PRIMGHAR,51245,POINT (-95.624301 43.085223),71,O'Brien
2960,Dahl's / Wdm,1208 PROSPECT,WEST DES MOINES,50265,POINT (-93.71984 41.580977),77,Polk
3791,Pit Stop Liquor and Tobacco,111 E HARRISON ST,JEFFERSON,50129,POINT (-94.374156 42.014308),37,Greene
4315,Fareway Stores #554 / Washington,301 NORTH MARION AVE,WASHINGTON,52353,POINT (-91.692985 41.301967),92,Washington
4265,Kwik Stop 3 / Waterloo,1104 WASHINGTON ST,WATERLOO,50702,POINT (-92.336965 42.489106),07,Black Hawk
2841,CVS Pharmacy #8532 / Cedar Rapids,2711 MT VERNON RD,CEDAR RAPIDS,52403,POINT (-91.62746800000001 41.976883),57,Linn
4774,Casey's General Store #3034 / Esther,"1615, CENTRAL AVE",ESTHERVILLE,51334,POINT (-94.822033 43.402229),32,Emmet
3543,Pronto Market,101 MAIN ST,KINGSLEY,51028,POINT (-95.967322 42.58707400000001),75,Plymouth
4932,B and B West,3105 HUDSON RD,CEDAR FALLS,50613,POINT (-92.465838 42.509248),07,Black Hawk
4325,Villisca Foods Inc.,509 S 3RD AVE,VILLISCA,50864,POINT (-94.977264 40.927076),69,Montgomery
4428,Kum & Go #200 / Ames,4510 MORTENSEN RD,AMES,50014,POINT (-93.679803 42.01214),85,Story
3895,Tom's Market and Meats,550 DIVISION ST,BURLINGTON,52601,POINT (-91.106472 40.807275000000004),29,Des Moines
4877,World Liquor & Tobacco,1775 NW 86TH ST,CLIVE,50325,POINT (-93.736232 41.607853),77,Polk
4831,L & M Gas & Grocery / Boone,"320, W MAMIE EISENHOWER AVE",BOONE,50036,POINT (-93.896855 42.05934),08,Boone
4239,Fareway Stores #850 / Spirit Lake,1906 KEOKUK,SPIRIT LAKE,51360,POINT (-95.106219 43.42157),30,Dickinson
4775,Casey's General Store #37 / Dakota C,"502, MAIN",DAKOTA CITY,50529,POINT (-94.200785 42.721419),46,Humboldt
4081,Harlan's Food Mart,306 WASHINGTON,STORY CITY,50248,POINT (-93.599757 42.185827),85,Story
4379,Kum & Go #2091 / Ashworth / WDM,5969 ASHWORTH RD,WEST DES MOINES,50266,POINT (-93.790021 41.584385),77,Polk
4662,Guppy's On The Go / Cedar Rapids,"1532, ELLIS BLVD NW",CEDAR RAPIDS,52405,POINT (-91.682151 41.988646),57,Linn
4530,Casey's General Store #2566 / Ely,1495 STATE ST,ELY,52227,POINT (-91.587155 41.872655),57,Linn
4948,Wheatland Day Break,102 W HWY 30,WHEATLAND,52777,POINT (-90.841518 41.82906),23,Clinton
4464,Perfect Value Liquor Mart,5B  LINCOLN AVE,ELDRIDGE,52748,POINT (-90.547796 41.695329),82,Scott
4565,KUM & GO #228 / Sioux city,1925 S LAKEPORT ST,SIOUX CITY,51106,POINT (-96.346548 42.469008),97,Woodbury
3465,Hometown Foods / Panora,601 E MAIN,PANORA,50216,POINT (-94.357201 41.69182),39,Guthrie
3808,Thriftway,300  4TH ST,LA PORTE CITY,50651,POINT (-92.190813 42.316243),07,Black Hawk
4792,Casey's General Store #2899 / De Sot,1100 GREENE ST,DE SOTO,50069,POINT (-94.02064300000002 41.614398),25,Dallas
2656,Hy-Vee Food Store / Corning,300  10TH ST,CORNING,51632,POINT (-94.731809 40.991861),22,Clayton
3825,Shop N Save #2 / E 14th,1372 E 14TH ST,DES MOINES,50316,POINT (-93.600499 41.604893),77,Polk
3393,The Hangout Liquors,111 W MAIN ST.,RICEVILLE,50466,POINT (-92.555014 43.363838),66,Mitchell
4000,Foodland Super Markets / Woodbine,5TH AND LINCOLN WAY,WOODBINE,51579,,43,Harrison
4642,Liquor and Tobacco Outlet / Univ Ave,2844 UNIVERSITY AVE,WATERLOO,50701,POINT (-92.382928 42.498321),07,Black Hawk
4868,Kum & Go #59 / Waukee,400 PRAIRIE BLUFF DR,WAUKEE,50263,POINT (-93.880018 41.565606),25,Dallas
4735,Walgreens #01301 / Ottumwa,327 W 4th ST,OTTUMWA,52501,POINT (-92.413688 41.021787),90,Wapello
4042,Lake Ohana Market / Mineola,23226 CENTRE DR,GLENWOOD,51534,POINT (-95.742414 41.130204),65,Mills
4906,Smoke.N.Pipe,3221 FIRST AVE SE,CEDAR RAPIDS,52404,POINT (-91.63496 42.010532),57,Linn
4044,Kum & Go #713 / Burlington,421 N MAIN ST,BURLINGTON,52601,POINT (-91.101093 40.811112),29,Des Moines
4460,MOORE'S FOODS,808 S Main St,Monona,52159,POINT (-91.389805 43.044875),22,Clayton
4075,Ali's West Side Liquor,919 W 5TH ST,WATERLOO,50701,,07,Black Hawk
4450,Kum & Go #157 / URBANDALE,4585 156TH ST,URBANDALE,50323,POINT (-93.833463 41.643162),77,Polk
4334,Fareway Stores #114 / Dubuque,2050 JOHN F KENNEDY RD,DUBUQUE,52001,,31,Dubuque
4154,Fareway Stores #055 / Hiawatha,885 MILLER RD,HIAWATHA,52233,POINT (-91.702263 42.046486),57,Linn
4182,Fareway Stores #008 / Dyersville,1207  12TH AVE SE,DYERSVILLE,52040,POINT (-91.111904 42.475277),31,Dubuque
3803,Strawberry Foods and Deli,128 W MISSION,STRAWBERRY POINT,52076,POINT (-91.535736 42.683731),22,Clayton
4052,Helle Hometown Variety,"300  1ST ST, STE F",SERGEANT BLUFF,51054,POINT (-96.360875 42.400344),97,Woodbury
4653,Casey's General Store #1617 / Jeffer,"508, N ELM",JEFFERSON,50129,POINT (-94.377422 42.02014),37,Greene
4090,Mcelroy's Food Market,135 MADISON ST,WINTHROP,50682,POINT (-92.53666400000002 42.951717),10,Buchanan
4781,Casey's General Store #3079 / Early,"2245, US HWY 71",EARLY,50535,POINT (-95.14799 42.467201),81,Sac
4569,Car-Go-Express / Sutherland,202 WEST SOUTHERN ST,SUTHERLAND,51058,POINT (-95.499742 42.968051),71,O'Brien
3972,Hometown Foods / Hubbard,210 MAPLE ST BOX 295,HUBBARD,50122,POINT (-93.302481 42.305571),42,Hardin
4259,Kum & Go #175 Liquors / Oskaloosa,901 S MARKET,OSKALOOSA,52577,POINT (-92.645075 41.287632),62,Mahaska
4588,Sam's Mini Mart / Sioux City,"923, W 7TH ST",SIOUX CITY,51103,POINT (-96.419074 42.503495),97,Woodbury
4702,Walgreens #05361 / Fort Dodge,2503 5th AVE S,FORT DODGE,50501,POINT (-94.162484 42.501197),94,Webster
3826,Terribles Lakeside Casino,777 CASINO DR,OSCEOLA,50213,POINT (-93.797561 41.040078),20,Clarke
2634,Hy-Vee Wine and Spirits / Ames,3615 LINCOLN WAY,AMES,50014,POINT (-93.667932 42.022911),85,Story
4254,Fareway Stores #849 / Emmetsburg,2008  12TH ST,EMMETSBURG,50536,POINT (-94.677307 43.109244),74,Palo Alto
4942,East Village Pantry,"333, E GRAND AVE",DES MOINES,50309,POINT (-93.613492 41.590253),77,Polk
4706,Walgreens #05144 / Clinton,1905 N  2ND ST,CLINTON,52732,POINT (-90.182002 41.866652),23,Clinton
4437,Kum & Go #215  Ames,4506 LINCOLN WAY,AMES,50010,,85,Story
4434,Todd's,209 S UNION ST,ROCK RAPIDS,51246,POINT (-96.175502 43.430056),60,Lyon
4173,L and K Liquor,132 NORTH MAIN ST PO BOX 306,PAULLINA,51046,POINT (-95.687686 42.979946),71,O'Brien
4704,The Filling Station / Council Bluffs,1531 2nd AVE,COUNCIL BLUFFS,51501,POINT (-95.867208 41.259698),78,Pottawattamie
4335,The Bottle Shop / Inwood,313 S MAIN ST,INWOOD,51240,POINT (-96.431975 43.306588),60,Lyon
4396,"Trunck's Country Foods, INC.",606 GRUNDY AVE,REINBECK,50669,POINT (-92.601293 42.325703),38,Grundy
4132,Camanche Food Pride,908 7TH AVE,CAMANCHE,52730,POINT (-90.257535 41.788751),23,Clinton
4673,Sonny's Super Market / West Point,327 5TH ST,WEST POINT,52656,POINT (-91.452491 40.717867),56,Lee
4840,Independence Ave Liquor & Food / Wat,1761 INDEPENDENCE AVE,WATERLOO,50707,POINT (-92.302514 42.498404),07,Black Hawk
4846,Casey's General Store #2697 / Onawa,"706, 10TH ST",ONAWA,51040,POINT (-96.097205 42.03035700000001),67,Monona
4497,Casey's General Store #20 / Alden,"1008, Grand",ALDEN,50006,POINT (-93.38023700000001 42.514223),42,Hardin
4270,Kum & Go Liquors #37 / Ottumwa,2508 N COURT ST,OTTUMWA,52501,POINT (-92.409169 41.051858),90,Wapello
4094,Campustown Liquor,218 WELCH AVE STE 3,AMES,50015,POINT (-93.650122 42.02069600000001),85,Story
4566,Kum & Go #508 / Cedar Rapids,30 FOUR OAKS DR SW,CEDAR RAPIDS,52404,POINT (-91.658073 41.923446),57,Linn
4449,Kum & Go #121 / URBANDALE,12041 DOUGLAS PKWY,URBANDALE,50322,POINT (-93.782998 41.62962),77,Polk
4724,Walgreens #05942 / Newton,1204 1ST AVE EAST,NEWTON,50208,POINT (-93.038091 41.699223),50,Jasper
4601,Kum & Go #4110 / Guthrie DM,2110 GUTHRIE AVE,DES MOINES,50317,POINT (-93.578778 41.61508),77,Polk
4368,Kum & Go #570 / Johnston,5800 NORTHGLEN DR,JOHNSTON,50131,POINT (-93.698308 41.682764),77,Polk
3654,The Beverage Shop / Belmond,207 E MAIN ST,BELMOND,50421,POINT (-93.615247 42.845901),99,Wright
4138,Fareway Stores #657 / Indianola,1309 W 2ND,INDIANOLA,50125,POINT (-93.579252 41.356616),91,Warren
3403,Econ-o-mart / Columbus Junction,113 EAST WALNUT ST.,COLUMBUS JUNCTION,52738,POINT (-91.358467 41.280183),58,Louisa
4381,Kum & Go #443 / Williamsburg,2177 M AVE,WILLIAMSBURG,52361,POINT (-92.066146 41.690903),48,Iowa
4414,KUM & GO #23 / NEOLA,29356 298TH ST,NEOLA,51559,POINT (-95.612045 41.438788),78,Pottawattamie
4807,Williamsburg Foods,"103, W WALNUT ST",WILLIAMSBURG,52361,POINT (-92.007391 41.662819),48,Iowa
4164,Expo Mart / Bettendorf,1810 STATE ST,BETTENDORF,52722,POINT (-90.506775 41.525308),82,Scott
4430,Kum & Go #87 / Fort Dodge,1601 FIFTH AVENUE S,FORT DODGE,50501,POINT (-94.175805 42.501112),94,Webster
4466,THE PUMPER,515 W WATER ST,FAYETTE,52142,POINT (-91.80894 42.844438),33,Fayette
4803,Walgreens #07453 / Des Moines,104 E EUCLID AVE,DES MOINES,50313,POINT (-93.617218 41.627683),77,Polk
4785,Casey's General Store #2835 / Avoca,1019 N CHESTNUT ST,AVOCA,51521,POINT (-95.336353 41.485575),78,Pottawattamie
4810,Kum & Go #518 / Ankeny,3603 NE OTTERVIEW CIRCLE,ANKENY,50021,POINT (-93.572458 41.760989),77,Polk
4376,Kum & Go #6 / Mason City,1920 S FEDERAL AVE,MASON CITY,50401,POINT (-93.201072 43.133204),17,Cerro Gordo
4236,Fareway Stores #551 / Eagle Grove,205 NW  1ST ST,EAGLE GROVE,50533,POINT (-93.903801 42.665165),99,Wright
4093,Hiway 20 Liquors / Fort Dodge,1724  5TH AVE SOUTH,FORT DODGE,50501,POINT (-94.173816 42.501131),94,Webster
4410,Kum & Go #203 / Perry,1219 1ST ST,PERRY,50220,,08,Boone
2836,CVS Pharmacy #8546 / Waterloo,205 FRANKLIN ST,WATERLOO,50703,POINT (-92.337641 42.503596),07,Black Hawk
4016,Hometown Foods / Conrad,119 N MAIN ST PO BOX 296,CONRAD,50621,POINT (-92.874589 42.225148),38,Grundy
4574,ThuLords,413 BROAD ST,WHITTEMORE,50598,POINT (-94.422941 43.06357),55,Kossuth
4441,SPEEDE SHOP,204 N Main St,Garnavillo,52049,POINT (-91.236067 42.868763),22,Clayton
4726,Walgreens #07454 / Ankeny,901 N ANKENY BLVD,ANKENY,50021,,77,Polk
3970,"The Liquor Cabinet, Inc.","835 6 ST, STE 1",NEVADA,50201,POINT (-93.452277 42.019292),85,Story
2579,Hy-Vee Food Store / Grinnell,320 WEST STREET SOUTH,GRINNELL,50112,POINT (-92.727343 41.7283),79,Poweshiek
4753,Casey's General Store #2521 / Adair,110 S 5TH ST,ADAIR,50002,POINT (-93.300253 41.013948),01,Adair
4728,Walgreens #05077 / Iowa City,2214 MUSCATINE AVE,IOWA CITY,52240,POINT (-91.502717 41.64953800000001),52,Johnson
4034,Spice-n-ice,123 N LAWLER ST,POSTVILLE,52162,POINT (-91.56837200000001 43.08605),03,Allamakee
4167,"Iowa Street Market, Inc.",1256 IOWA ST,DUBUQUE,52001,POINT (-90.668138 42.504959),31,Dubuque
4398,KUM & GO #4786 / BELMOND,112 RIVER AVE S,BELMOND,50421,POINT (-93.616821 42.84535),99,Wright
4201,Fareway Stores #022 / Sioux City,4040 WAR EAGLE DR,SIOUX CITY,51109,POINT (-96.461706 42.49488100000001),97,Woodbury
4663,Casey's General Store #3077 / Peosta,236 PEOSTA ST,PEOSTA,52068,POINT (-90.85041 42.443954),31,Dubuque
4293,Eddyville Market and Deli L,121 WALNUT,EDDYVILLE,52553,POINT (-92.63762 41.156476),90,Wapello
4451,Kum & Go #96 / WEBSTER CITY,1803 SUPERIOR ST,WEBSTER CITY,50595,POINT (-93.815845 42.459531),40,Hamilton
2327,West Side Spirits,801 HULL ST,CORNING,50841,POINT (-94.74369200000001 40.990378),02,Adams
4131,Fareway Stores #933 / Urbandale,8450 MEREDITH DR,URBANDALE,50322,POINT (-93.734312 41.643829),77,Polk
4546,Casey's General Store #2303 / Glidde,705 IDAHO ST,GLIDDEN,51443,POINT (-94.728981 42.063817),14,Carroll
4446,QUIK TRIP #513 / URBANDALE,4600 MERLE HAY RD,URBANDALE,50322,POINT (-93.697999 41.644296),77,Polk
4614,Urban Liquor,6401 DOUGLAS AVE ste 1,URBANDALE,50322,POINT (-93.705732 41.629411),77,Polk
3829,Gary's Foods / Mt Vernon,715  1ST AVE S,MOUNT VERNON,52314,POINT (-91.422487 41.916708),57,Linn
4246,Fareway Stores #938 / Shenandoah,1007 S FREMONT ST,SHENANDOAH,51601,,73,Page
4504,JIFFY EXPRESS #921 / INDIANOLA,311 NORTH JEFFERSON,INDIANOLA,50125,,91,Warren
4337,Grand Falls Casino Resort,1415 GRAND FALLS BLVD,LARCHWOOD,51241,,60,Lyon
4607,Casey's General Store #1024 / Gutten,"1131, S HWY 52",GUTTENBERG,52052,POINT (-91.100516 42.772826),22,Clayton
4171,"Brothers Market, Inc. / Cascade",105 SE NIXON ST,CASCADE,52033,POINT (-90.993859 42.3036),31,Dubuque
4777,Casey's General Store #1365 / Paulli,"315, E GRAND AVE",PAULLINA,51046,POINT (-95.684058 42.98282),71,O'Brien
4575,Casey's General Store #2304 / Slater,200 6th AVE,SLATER,50244,POINT (-93.679808 41.877859),85,Story
4458,QUIK TRIP #568 / JOHNSTON,5169 MERLE HAY RD,JOHNSTON,50131,POINT (-93.69753300000002 41.654161),77,Polk
2113,Jamboree Foods,1119 MARKET ST. BOX 71,GOWRIE,50543,POINT (-94.289457 42.28057),94,Webster
2445,Ruback's Food Center,504 SOUTH HIGHWAY,OAKLAND,51560,,78,Pottawattamie
4696,Quik Trip #517 / West Des Moines,1451 22nd ST,WEST DES MOINES,50266,POINT (-93.735967 41.59527),77,Polk
3056,Clarion Super Valu Ii,325 CENTRAL AVE W,CLARION,50525,POINT (-93.735875 42.731643),99,Wright
4669,Vom Fass / Des Moines,"833, 42ND ST",DES MOINES,50312,POINT (-93.674384 41.59343100000001),77,Polk
4850,Big 10 Mart,4141 CENTERPOINT RD NE,CEDAR RAPIDS,52402,POINT (-91.665352 42.021302),57,Linn
4303,Mepo Foods,111 N WAPELLO,MEDIAPOLIS,52637,POINT (-91.170033 41.008539),29,Des Moines
4890,Casey's General Store #3210 / Urband,4400 128TH ST,URBANDALE,50323,,77,Polk
4646,Pronto Market / Fairbank,104 4th ST,FAIRBANK,50629,POINT (-92.098282 42.85035400000001),10,Buchanan
3591,Ackley Super Foods,526 MAIN ST,ACKLEY,50601,POINT (-93.055216 42.554159),94,Webster
3616,Laurens Food Pride,410 W MAIN ST,LAURENS,50554,POINT (-94.853219 42.846725),76,Pocahontas
4811,Casey's General Store #1327 / Lovili,"1807, HWY 5 S",LOVILIA,50150,POINT (-92.906673 41.135611),68,Monroe
4710,Walgreens #09708 / Dubuque,55 JOHN F KENNEDY RD,DUBUQUE,52002,POINT (-90.71557 42.493304),31,Dubuque
4790,Mediapolis Fast Break,"109, WAPELLO ST",MEDIAPOLIS,52405,POINT (-91.170025 41.007416),29,Des Moines
4472,Quick Shop Foods / Centerville,1023 SOUTH MAIN,CENTERVILLE,52544,POINT (-92.874182 40.72417500000001),04,Appanoose
3928,Smokin' Joe's #12 Tobacco and Liquor,465 HWY 965 UNIT G,NORTH LIBERTY,52317,POINT (-91.60759 41.739524),52,Johnson
4844,Iowa City Fast Break,"2580, NAPLES AVE",IOWA CITY,52240,POINT (-91.571064 41.632792),52,Johnson
4551,Casey's General Store #2845 / Urband,201 SUNSET ST,URBANA,52345,,06,Benton
4772,Kum & Go #97 / West Des Moines,196 S 50TH ST,WEST DES MOINES,50265,POINT (-93.770921 41.570542),77,Polk
4382,Kum & Go #8 / 8th St / WDM,1293 8TH AVE,WEST DES MOINES,50265,,77,Polk
4184,Fareway Stores #998 / Muscatine,2100 CEDAR PLAZA DR,MUSCATINE,52761,POINT (-91.08192400000001 41.435264),70,Muscatine
4597,Quik Trip #523 / Army Post DM,850 ARMY POST RD,DES MOINES,50315,POINT (-93.62509300000002 41.526428),77,Polk
4770,Casey's General Store #3080 / Hudson,"354, E ELDORA RD",HUDSON,50643,POINT (-92.44941200000001 42.409554),07,Black Hawk
4442,A-TOWN LIQUOR STORE,212 10TH ST,ALTON,51003,POINT (-96.010058 42.987005),84,Sioux
4362,Kum & Go #135 / Polk City,303 W BROADWAY ST,POLK CITY,50226,POINT (-93.71443100000002 41.772214),77,Polk
4824,Casey's General Store #3224 / Cresto,301 W TAYLOR ST,CRESTON,50801,POINT (-94.364142 41.049199),88,Union
4444,Kum & Go #4127 / SLOAN,1864 HWY 141,SLOAN,51055,POINT (-96.236082 42.228581),97,Woodbury
4306,Northside One Stop / Hampton,1208  4TH ST NE,HAMPTON,50441,POINT (-93.202452 42.753045),35,Franklin
4560,Casey's General Store #2914 / Harlan,"1006, CHATBURN AVE",HARLAN,51537,POINT (-95.322969 41.645404),83,Shelby
4506,Casey's General Store #2667 / Tiffin,403 STEPHENS ST,TIFFIN,52340,POINT (-91.660199 41.707316),52,Johnson
4469,Sperry One Stop Shop LLC,516 HWY 141,COON RAPIDS,50058,POINT (-94.678374 41.865913),14,Carroll
4438,Kum & Go #214  Ames,111 DUFF AVE,AMES,50010,POINT (-93.610396 42.023592),85,Story
4817,Casey's General Store #3217 / Knoxvi,"1201, E MAIN ST",KNOXVILLE,50138,POINT (-93.086255 41.318981),63,Marion
3700,Avoca Liquor,158 SOUTH ELM,AVOCA,51521,POINT (-95.339412 41.476306),78,Pottawattamie
4622,Quik Trip #544 / SE 14th DM,"3941, SE 14th ST",DES MOINES,50320,POINT (-93.596748 41.548497),77,Polk
3920,Smokin' Joe's #11 Tobacco and Liquor,1606 CAMANCHE AVE,CLINTON,52732,POINT (-90.204748 41.827845),23,Clinton
4640,Mart Stop #1 / Davenport,"3527, SPRING ST",DAVENPORT,52807,POINT (-90.547751 41.5563),82,Scott
4783,Casey's General Store #1684 / Emmets,"2406, MAIN ST",EMMETSBURG,50536,POINT (-94.68211 43.111911),74,Palo Alto
3818,Round Window Liquor,703 W PLEASANT ST,KNOXVILLE,50138,POINT (-93.10564100000002 41.320746),63,Marion
4517,Casey's General Store #2767 / Cedar,3434 1ST AVE NE,CEDAR RAPIDS,52402,POINT (-91.635028 42.013062),57,Linn
4647,B and B EAST / Waterloo,1615 BISHOP AVE,WATERLOO,50707,POINT (-92.293057 42.49807),07,Black Hawk
4621,Casey's General Store #23 / Maxwell,"100, MAIN ST",MAXWELL,50161,POINT (-93.39968000000002 41.888013),85,Story
4309,The Party Pantry,430 S 35TH ST,COUNCIL BLUFFS,51501,POINT (-95.902023 41.257663),78,Pottawattamie
4144,"Liquor, Beer and Tobacco Outlet",1908 CLARK ST,CHARLES CITY,50616,POINT (-92.661881 43.05913400000001),34,Floyd
4196,Fareway Stores #987 / Davenport,1635 WEST 53RD ST,DAVENPORT,52806,POINT (-90.598191 41.574438),82,Scott
4908,Zapf's Pronto Market,107 1st ST SW,ELKADER,52043,POINT (-91.405293 42.85389),22,Clayton
2657,Hy-Vee Food Store / Bedford,1604 BENT,BEDFORD,50833,POINT (-94.72557800000001 40.676171),87,Taylor
4888,Circle S Bluff Stop,302 1ST ST,SERGEANT BLUFF,51054,POINT (-96.361378 42.400333),97,Woodbury
4608,Casey's General Store #3050 / Counci,"510, 23rd AVE",COUNCIL BLUFFS,51503,POINT (-95.85248 41.23931),78,Pottawattamie
4114,After 5 Somewhere,704 W 7TH ST PO BOX 372,ATLANTIC,50022,POINT (-95.023116 41.40406200000001),15,Cass
4592,Dyno's #29 / Emmetsburg,"2401, MAIN",EMMETSBURG,50536,POINT (-94.681939 43.111913),74,Palo Alto
4518,Casey's General Store #2824 / WDM,6630 MILLS CIVIC PARKWAY,WEST DES MOINES,50266,POINT (-93.799283 41.561791),77,Polk
4905,South Side Grocery,"319, COURT ST",ROCKWELL CITY,50579,POINT (-94.632453 42.394636),13,Calhoun
3957,Karl's Grocery Store,101 WEST MADISON,EDGEWOOD,52042,POINT (-91.401487 42.645390000000006),22,Clayton
4585,Casey's General Store #2561 / Farley,"306, 1st ST SW",FARLEY,52046,POINT (-91.006139 42.439552),31,Dubuque
4643,Cubby's Red Oak,"2405, N BROADWAY ST",RED OAK,51566,POINT (-95.232924 41.027387),69,Montgomery
4484,JEFF'S MARKET / WEST LIBERTY,200 E 3RD,WEST LIBERTY,52776,POINT (-91.26158700000002 41.569916),70,Muscatine
3712,Monte Spirits,109 N 4TH ST,MONTEZUMA,50171,POINT (-92.523692 41.585429),79,Poweshiek
4834,Muscatine Fast Break,2603 SECOND AVE,MUSCATINE,52761,POINT (-91.034915 41.451884),70,Muscatine
4629,Kwik Shop #541 / Glenwood,309 N LOCUST ST,GLENWOOD,51534,POINT (-95.744909 41.050184),65,Mills
4698,Quality Quick Stop,201 W BURLINGTON AVE,FAIRFIELD,52556,POINT (-91.965379 41.006639),51,Jefferson
4411,KUM & GO #95 / DE SOTO,1203 GUTHRIE ST,DE SOTO,50069,POINT (-94.012641 41.538192),25,Dallas
4078,Prime Mart 4,2323 MAIN ST,CEDAR FALLS,50613,POINT (-92.44586000000001 42.516198),07,Black Hawk
4249,Fareway Stores #048 / Clarinda,115 ESSIE DAVISON DR,CLARINDA,51632,POINT (-95.040293 40.724008),73,Page
3740,Hometown Foods / Waterloo,1010 E MITCHELL AVE,WATERLOO,50702,POINT (-92.343118 42.476639),07,Black Hawk
4699,Walgreens #06553 / Bettendorf,830 MIDDLE RD,BETTENDORF,52722,POINT (-90.521768 41.538452),82,Scott
4537,Casey's General Store #1834 / Leon,401 NW CHURCH ST,LEON,50144,POINT (-93.747901 40.742126),27,Decatur
4225,T P Plaza,1701 IOWA AVE,MARSHALLTOWN,50158,,64,Marshall
4664,Casey's General Store #24 / Boone,1127 STORY,BOONE,50036,POINT (-93.88006800000001 42.067645),08,Boone
4875,Bani's,"307, MAIN ST",CEDAR FALLS,50613,POINT (-92.445477 42.535592),07,Black Hawk
4786,Casey's General Store #1706 / Winter,1021 N 1st ST,WINTERSET,50273,POINT (-94.013479 41.34362600000001),61,Madison
3779,"Station Wine and Spirits, T",2324 N 15TH ST,FORT DODGE,50501,POINT (-94.177993 42.529612),94,Webster
4121,Newport Bp / Wapello,13410 STATE HWY 78,WAPELLO,52653,POINT (-91.185031 41.087806),58,Louisa
4540,Casey's General Store #2915 / Bellev,1104 N RIVERVIEW ST,BELLEVUE,52031,POINT (-90.427844 42.268432),49,Jackson
3676,T and M Foods,107 E TRAER,GREENE,50636,POINT (-92.801846 42.895914),12,Butler
4881,Sperry One Stop Shop LLC,516 HWY 141,COON RAPIDS,50058,POINT (-94.678374 41.865913),14,Carroll
4494,SELECT MART / SIOUX CITY,800 HAMILTON BLVD,SIOUX CITY,51103,POINT (-96.41738 42.504385),97,Woodbury
4581,Prime Mart / Cedar Falls,2728 CENTER ST,CEDAR FALLS,50613,POINT (-92.455972 42.561054),07,Black Hawk
4283,Guppys On The Go,680 LINDALE DR,MARION,52302,POINT (-91.621476 42.033645),57,Linn
4399,KUM & GO #59 / WAUKEE,33083 UTE AVE,WAUKEE,50263,POINT (-93.88066800000001 41.56041),25,Dallas
4523,Casey's General Store #2563 / Exira,312 W WASHINGTON ST,EXIRA,50076,POINT (-94.879847 41.591142),05,Audubon
4462,SHELTON'S,"113, 1ST ST NW",BUFFALO CENTER,50424,POINT (-93.947595 43.386755),95,Winnebago
4925,Kum & Go #574 / Urbandale,8600 MEREDITH DR,URBANDALE,50266,POINT (-93.88318400000001 41.643849),77,Polk
4432,Kum & Go #201 Coralville,822 1ST AVE,CORALVILLE,52241,POINT (-91.565766 41.681286),52,Johnson
3679,FRANKLIN STREET FLORAL & GIFT,103 FRANKLIN ST,MONONA,52159,POINT (-91.390767 43.055133),22,Clayton
4336,Last Call 2,120 N MAIN ST,GEORGE,51237,POINT (-96.002297 43.344294),60,Lyon
4788,Walgreens #12580 / Cedar Rapids,324 EDGEWOOD RD NW,CEDAR RAPIDS,52405,POINT (-91.715942 41.975039),57,Linn
4599,Quik Trip #500 / Hubbell DM,3700 HUBBELL AVE,DES MOINES,50317,POINT (-93.54490600000001 41.629026),77,Polk
4510,Casey's General Store #1007 / Malver,701 MAIN ST,MALVERN,51551,POINT (-95.585127 41.005672),65,Mills
4405,KUM & GO #92 / ANKENY,1025 E  1ST ST,ANKENY,50021,POINT (-93.58166 41.731869),77,Polk
4347,Jeff's Market / Blue Grass,102 W MAYNE,BLUE GRASS,52726,POINT (-90.766126 41.509119),82,Scott
4367,Kum & Go #109 / Mason City,1224 N FEDERAL AVE,MASON CITY,50401,POINT (-93.201061 43.163367),17,Cerro Gordo
4858,Hwy 34 Truckstop,4305 W MT PLEASANT,WEST BURLINGTON,52655,POINT (-91.208324 40.82658),29,Des Moines
4453,SID'S GAS and GROCERIES,"1116, HWY 69 SOUTH",FOREST CITY,50436,POINT (-93.637202 43.24898100000001),95,Winnebago
4625,Kwik Shop #532 / Council Bluffs,1602 AVENUE G,COUNCIL BLUFFS,51501,POINT (-95.86789 41.26712),78,Pottawattamie
4355,Kum & Go #124 / Story City,1554 BROAD ST,STORY CITY,50248,POINT (-93.57573 42.187733),85,Story
4071,Kellogg Country Store,103 BLAIR ST,KELLOG,50136,POINT (-92.903113 41.7144),50,Jasper
2664,Hy-Vee C-Store / Charles City,1003 KELLY ST,CHARLES CITY,50616,POINT (-92.674229 43.066255),34,Floyd
4375,Kum & Go #237 / Grimes,801 N 1ST ST,GRIMES,50111,POINT (-94.498753 41.680108),77,Polk
4391,KUM & GO #236 / GREENFIELD,508 SE KENT ST,GREENFIELD,50849,POINT (-94.45363 41.303202),01,Adair
4914,Prime Mart / Center St,2728 CENTER ST,CEDAR FALLS,50613,POINT (-92.455972 42.561054),07,Black Hawk
4351,Kum & Go #301 / Clear Lake,2325 7th Ave North N,CLEAR LAKE,50248,POINT (-93.02241 41.705265),17,Cerro Gordo
4324,Dayton Community Grocery,22 NORTH MAIN,DAYTON,50530,POINT (-94.068439 42.26168),94,Webster
2609,Hy-Vee Drugstore #2 / Ames,500 MAIN ST,AMES,50010,POINT (-93.618247 42.025042),85,Story
4756,Walgreens #03196 / Marshalltown,5 E ANSON,MARSHALLTOWN,50158,POINT (-92.911565 42.038119),64,Marshall
4068,Sa Petro Mart,136  1ST ST,WEST DES MOINES,50265,POINT (-93.703344 41.570743),77,Polk
4539,Casey's General Store #40 / Scranton,900 LOCUST ST,SCRANTON,51462,POINT (-94.551577 42.02248),37,Greene
4076,Sakar Liquor Store,1026 W RIVER DR #B,DAVENPORT,52802,POINT (-90.588375 41.520158),82,Scott
4658,Casey's General Store #3027 / Iowa F,904 WASHINGTON AVE,IOWA FALLS,50126,POINT (-93.26836500000002 42.519634),42,Hardin
3907,Smokin' Joe's #16 Tobacco and Liquor,1504 PARK AVE,MUSCATINE,52761,POINT (-91.030569 41.442458),70,Muscatine
4541,Casey's General Store #1045 / Delmar,502 MARKET,DELMAR,52037,POINT (-90.606669 42.003648),23,Clinton
4661,Quik Trip #531 / Grimes,"1900, SE 37th ST",GRIMES,50111,POINT (-93.773467 41.658525),77,Polk
3065,Montezuma Super Valu,201 S FRONT ST,MONTEZUMA,50171,POINT (-92.527248 41.584179),79,Poweshiek
4779,Casey's General Store #25 / Mount Ay,"300, W SOUTH ST",MOUNT AYR,50854,POINT (-94.240402 40.710908),80,Ringgold
4380,Kum & Go #254 / West Branch,620 S DOWNEY ST,WEST BRANCH,52358,POINT (-91.346676 41.668271),16,Cedar
4552,Casey's General Store #2493 / Buffal,222 W FRONT ST,BUFFALO,52728,,82,Scott
2498,Charley's Quik Shop,910 MAIN ST,ARLINGTON,50606,POINT (-91.674803 42.751074),33,Fayette
4448,Kum & Go #572 / URBANDALE,4860 NW URBANDALE DR,URBANDALE,50322,POINT (-93.769429 41.646391),77,Polk
3959,Hartig Drug Company #8 / University,1600 UNIVERSITY AVE,DUBUQUE,52001,POINT (-90.688027 42.498279),31,Dubuque
4754,Walgreens #12148 / Waverly,320 W BREMER AVE,WAVERLY,50677,POINT (-92.475049 42.725721),09,Bremer
4595,Quik Trip #559 / Fleur Dr DM,4024 FLEUR DR,DES MOINES,50321,POINT (-93.645068 41.547105),77,Polk
3717,The Liquor Stop / Sumner,201 W 1st ST,SUMNER,50674,POINT (-92.09922100000001 42.847479),09,Bremer
4773,"Fast Mart 2, LLC",2704 VINE ST,WEST DES MOINES,50265,POINT (-93.741511 41.580206),77,Polk
4521,Casey's General Store #1002 / Grand,504 16TH ST N,GRAND JUNCTION,50107,POINT (-94.232024 42.035781),37,Greene
4489,Casey's General Store #2763 / Cedar,641 EDGEWOOD RD NW,CEDAR RAPIDS,52405,POINT (-91.715925 41.979772),57,Linn
4455,Kum & Go #1959 / Eldora,2359 EDGINGTON AVE,ELDORA,50627,POINT (-93.113653 42.360612),42,Hardin
4113,Tobacco Hut #6 / Council,3134 MANAWA CENTRE DR,COUNCIL BLUFFS,51501,POINT (-95.847514 41.228712),78,Pottawattamie
4527,Casey's General Store #30 / Gilmore,105 SE FIRST ST,GILMORE CITY,50541,POINT (-94.44175 42.732227),46,Humboldt
4782,Casey's General Store #2529 / Lamoni,406 E MAIN ST,LAMONI,50140,POINT (-93.92909 40.62366),27,Decatur
4536,Casey's General Store #2420 / Dubuqu,2699 ROCKDALE,DUBUQUE,52003,POINT (-90.678368 42.455083),31,Dubuque
4279,Keota Eagle Foods,217 E BROADWAY,KEOTA,52248,POINT (-91.952725 41.363958),54,Keokuk
4377,Quik Trip #562 / NE 14th / DSM,4801 NE 14TH ST,DES MOINES,50313,POINT (-93.600266 41.648602),77,Polk
4683,New Star 3 / Waterloo,1459 ANSBOROUGH AVE,WATERLOO,50701,POINT (-92.376863 42.493091),07,Black Hawk
4947,The Music Station,1420 W FIRST ST,CEDAR FALLS,50647,POINT (-92.462826 42.537839),07,Black Hawk
4357,Kum & Go #125 / Story City,527 PARK AVE,STORY CITY,50248,POINT (-93.597789 42.186722),85,Story
3968,Monroe Liquor,105 W SHERMAN PO BX 1023,MONROE,50170,,50,Jasper
4667,Kum & Go #56 / Bevington,101 E IA HIGHWAY 92,BEVINGTON,50033,POINT (-93.790419 41.360431),61,Madison
4232,"Elliott's General Store,",23828 HWY J18,MORAVIA,52571,POINT (-92.834054 40.892417),04,Appanoose
4843,Stewart Road Fast Break,"2418, STEWART RD",MUSCATINE,52761,POINT (-91.07265200000002 41.390911),70,Muscatine
4422,KUM & GO #193 / STUART,104 N DIVISION ST,STUART,50250,POINT (-94.318376 41.503858),01,Adair
4867,Speedy Gas N Shop,"430, S 35TH ST",COUNCIL BLUFFS,51501,POINT (-95.902023 41.257663),78,Pottawattamie
4522,Casey's General Store #2523 / Monroe,201 RALPH ST,MONROE,50170,POINT (-93.099657 41.509806),50,Jasper
4659,Casey's General Store #2802 / Conrad,409 E CENTER,CONRAD,50621,POINT (-92.86887400000002 42.22453600000001),38,Grundy
4559,Osage Payless Foods,"633, CHASE ST",OSAGE,50461,POINT (-92.811539 43.285134),66,Mitchell
4495,Casey's General Store #3055 / Grundy,"504, G AVE",GRUNDY CENTER,50638,POINT (-92.770411 42.361494),38,Grundy
4577,Casey's General Store #2551 / Woodwa,"906, S MAIN ST",WOODWARD,50276,POINT (-93.9222 41.848949),25,Dallas
4488,Casey's General Store #2762 / Cedar,20 MILLER AVE SW,CEDAR RAPIDS,52404,POINT (-91.657314 41.924504),57,Linn
4406,KUM & GO #4020 / ANKENY,1910 SW WHITE BIRCH CIRCLE,ANKENY,50023,POINT (-93.62657100000001 41.701905),77,Polk
4471,Kum & Go #212 / WATERLOO,117 E SAN MARNAN DR,WATERLOO,50702,POINT (-92.355753 42.457847),07,Black Hawk
4564,JEFF'S MARKET / DURANT,408 6th AVE,DURANT,52747,POINT (-90.911744 41.600606),16,Cedar
2846,CVS Pharmacy #8443 / Cedar Rapids,3419 16th AVE SW,CEDAR RAPIDS,52404,POINT (-91.716615 41.963516),57,Linn
4880,Casey's General Store #1567 / Anita,"912, MAIN ST",ANITA,50020,POINT (-94.767946 41.44353000000001),15,Cass
3554,Dick's Beverage Depot,102 N MAIN,TRIPOLI,50676,POINT (-92.258152 42.809882),09,Bremer
4503,Casey's General Store #38 / Treynor,102 W MAIN ST,TREYNOR,51575,POINT (-95.617322 41.232472),78,Pottawattamie
4528,Casey's General Store #1303 / Marsha,111 N 3RD AVE,MARSHALLTOWN,50158,POINT (-92.908032 42.051236),64,Marshall
4520,Casey's General Store #2842 / Huxley,902 N HWY 69,HUXLEY,50124,POINT (-93.607648 41.901604),85,Story
4737,Walgreens #11330 / Storm Lake,800 LAKE AVE,STORM LAKE,50588,POINT (-95.200778 42.647103),11,Buena Vista
4480,Circle K #6602 / Clinton,1530 NORTH 2ND ST,CLINTON,52732,POINT (-90.183722 41.861892),23,Clinton
4498,Speede Shop / Winthrop,644 220th St,WINTHROP,50682,,10,Buchanan
4505,Casey's General Store #2816 / Johnst,6417 NORTHGLEN DR,JOHNSTON,50131,POINT (-93.706058 41.687924),77,Polk
2848,CVS Pharmacy #10114 / Ankeny,104 E FIRST ST,ANKENY,50023,,77,Polk
4365,Kum & Go #222 / West St Grinnell,1002 WEST ST,GRINNELL,50112,POINT (-92.727375 41.745106),79,Poweshiek
4695,Walgreens #09791 / Altoona,101 8th ST SE,ALTOONA,50009,POINT (-93.464184 41.644039),77,Polk
4407,KUM & GO #1272 / KNOXVILLE,1201 E MAIN ST,KNOXVILLE,50138,POINT (-93.086255 41.318981),63,Marion
4166,Jesup Food Center,1314  7TH ST,JESUP,50648,POINT (-92.062259 42.469327),10,Buchanan
4341,Mj's Grocery,524 MAIN ST,GRISWOLD,51535,POINT (-95.14161 41.234743),15,Cass
4749,Walgreens #05239 / Davenport,1660 W LOCUST ST,DAVENPORT,52804,POINT (-90.600599 41.538253),82,Scott
4125,Wapello Jack and Jill,503 HWY 61 SOUTH,WAPELLO,52653,POINT (-91.188949 41.173133),58,Louisa
4354,Kum & Go #4205 / Shenandoah,1303 W SHERIDAN AVE,SHENANDOAH,51601,POINT (-95.383909 40.765871),73,Page
4825,Casey's General Store #3212 / Osceol,400 S MAIN ST,OSCEOLA,50213,POINT (-93.765689 41.030336),20,Clarke
4767,Casey's General Store #3075 / Ankeny,"6981, NE 14TH ST",ANKENY,50023,POINT (-93.600659 41.687793000000006),77,Polk
3172,Nash Finch / econofoods #51,20 SOUTH 4TH ST,CLEAR LAKE,50428,POINT (-93.380368 43.135941),17,Cerro Gordo
4356,Kum & Go #396 / Nevada,136 LINCOLN HWY,NEVADA,50201,POINT (-93.458003 42.022725),85,Story
4722,Walgreens #09476 / Burlington,201 S CENTRAL AVE,BURLINGTON,56201,POINT (-95.79728 45.009612),29,Des Moines
4768,Kum & Go #777 / Urbandale,8228 DOUGLAS AVE,URBANDALE,50322,POINT (-93.731344 41.629152),77,Polk
3747,T-N-T Liquor,110 SOUTH MAIN,SIGOURNEY,52591,POINT (-92.20510500000002 41.333293),54,Keokuk
4761,Walgreens #03590 / Waterloo,3910 UNIVERSITY AVE,WATERLOO,50701,POINT (-92.402918 42.505004),07,Black Hawk
4578,Casey's General Store #2592 / Farmin,201 S 4TH ST,FARMINGTON,52626,POINT (-91.740069 40.639743),89,Van Buren
3482,Kick The Can,525 N MAPLE ST,CARROLL,51401,POINT (-94.861667 42.063255),14,Carroll
4701,Walgreens #11193 / Boone,310 STORY ST,BOONE,50036,POINT (-93.879992 42.059115),08,Boone
4579,USA Food & Gas / Grand Mound,2293 HWY 30,GRAND MOUND,52751,POINT (-90.646331 41.828025),23,Clinton
4262,Cork and Bottle / Carroll,1004 HIGHWAY 30 W,CARROLL,51401,,14,Carroll
4594,Quik Trip #554 / SW 63rd DM,901 SW 63rd ST,DES MOINES,50312,POINT (-93.703165 41.569715),77,Polk
3976,North English Family Food,119 NORTH MAIN ST,NORTH ENGLISH,52316,POINT (-92.076452 41.515209),48,Iowa
4533,Casey's General Store #1985 / St. An,110 N HWY 218,ST ANSGAR,50472,POINT (-92.917588 43.378704),66,Mitchell
4177,"Good Luck, Inc.",806 W MAIN ST,LE GRAND,50142,POINT (-92.78465400000002 42.006665),64,Marshall
4893,Casey's General Store #3098 / WDM,105 GRAND AVE,WEST DES MOINES,50265,POINT (-93.70379 41.582697),77,Polk
4573,Casey's General Store #1330 / Hambur,1211 WASHINGTON ST,HAMBURG,51640,POINT (-95.654604 40.605217),36,Fremont
4830,JCL Store,"7600, UNIVERSITY AVE",CLIVE,50325,POINT (-93.721659 41.600394),77,Polk
4873,Casey's General Store #2559 / Grange,"1802, SYCAMORE ST",GRANGER,50109,POINT (-93.824366 41.758781),25,Dallas
4193,Hartley Wine And Spirits,361  3RD ST NW,HARTLEY,51346,POINT (-95.482442 43.184882),71,O'Brien
4655,Casey's General Store #2237 / Prairi,1002 W 2ND ST,PRAIRIE CITY,50228,POINT (-93.247591 41.596714),50,Jasper
4759,Walgreens #10855 / Waterloo,1850 LOGAN AVE,WATERLOO,50703,POINT (-92.337563 42.527132),07,Black Hawk
3606,Scotty's Liquor Store,804 G AVE,GRUNDY CENTER,50638,POINT (-92.77421500000001 42.361514),38,Grundy
4496,B P ON 1ST,"2824, 1ST AVE NE",CEDAR RAPIDS,52402,POINT (-91.634838 42.005867),57,Linn
3813,CGI Foods,104 NORTH FILLMORE,MOUNT AYR,50854,POINT (-94.238806 40.714826),80,Ringgold
3916,Smokin' Joe's #5 Tobacco and Liquor,1115 ALBIA RD,OTTUMWA,52501,POINT (-92.437224 41.009342),90,Wapello
4465,HOME TOWN FOOD ON 4,714 S EAST ST,POMEROY,50575,POINT (-94.678054 42.542993),13,Calhoun
3041,Shugar's Super Valu / Colfax,28 E HOWARD,COLFAX,50054,POINT (-93.244443 41.677932),50,Jasper
4247,Fareway Stores #879 / Belmond,115 SECOND  AVE SE,BELMOND,50421,POINT (-93.614197 42.845742),,
4186,H and A Mini Mart / Phillips 66,5901 FLEUR DR,DES MOINES,50321,POINT (-93.644946 41.531145),77,Polk
4911,Casey's General Store #1061 / Prince,"500, HWY 67 N",PRINCETON,52768,POINT (-90.340914 41.677287),82,Scott
4571,Casey's General Store #2357 / Alliso,"100, CHERRY ST",ALLISON,50602,POINT (-92.790457 42.745202),12,Butler
4386,KUM & GO #701 / MARSHALLTOWN,613 N. 3RD AVE N,MARSHALLTOWN,50158,POINT (-92.9081 42.057471),64,Marshall
4596,Quik Trip #534 / E University DM,2945 E UNIVERSITY,DES MOINES,50317,POINT (-93.558972 41.600468),77,Polk
4421,KUM & GO #1 / HAMPTON,609 CENTRAL AVE W,HAMPTON,50441,POINT (-93.21508 42.741741),35,Franklin
4392,KUM & GO #156 / CLIVE,15600 HICKMAN RD,CLIVE,50325,POINT (-93.834209 41.614732),77,Polk
4385,Kum & Go #43 / New Virginia,1453 CO HWY G76,NEW VIRGINIA,50210,,91,Warren
4600,Kum & Go #207 / Hubbell DM,4200 E HUBBELL AVE,DES MOINES,50317,POINT (-93.531534 41.636023),77,Polk
4097,Schleswig Foods And Spirits,108  2ND ST,SCHLESWIG,51461,POINT (-95.436648 42.165983),24,Crawford
4030,Buy Rite Foods,201 MARKET ST,LAKE PARK,51347,POINT (-95.321385 43.454741),30,Dickinson
4787,Guppy's On The Go Swisher,2722 NE 120TH ST,SWISHER,52338,POINT (-91.664592 41.847894),52,Johnson
4350,Kum & Go #703 / Marshalltown,916 E MAIN ST,MARSHALLTOWN,50158,POINT (-92.89647300000001 42.049238),64,Marshall
4490,Casey's General Store #2766 / Cedar,380 33RD AVE SW,CEDAR RAPIDS,52404,POINT (-91.67222100000001 41.944954),57,Linn
4930,Casey's General Store #3251 / Boone,1303 SE MARSHALL ST,BOONE,50036,POINT (-93.872188 42.035107),08,Boone
4221,Kwik Stop / Texas St,4335 TEXAS ST,WATERLOO,50702,POINT (-92.306998 42.453042),07,Black Hawk
4338,Randhawa's Travel Center,1659D MARSHALLTOWN BLVD,MELBOURNE,50162,POINT (-93.100117 41.953843),64,Marshall
3480,C's Spencer Liquor,719  2ND AVE W PO BOX 401,SPENCER,51301,POINT (-95.147741 43.14521),21,Clay
2511,Hy-Vee / Drugtown #2 / Cedar Rapids,"1440 32ND STREET, N.E.",CEDAR RAPIDS,52402,POINT (-91.657622 42.010355),57,Linn
4917,Kum & Go #115 / Perry,1115 IA HWY 141,PERRY,50220,POINT (-94.10386 41.830334),25,Dallas
4887,Kum & Go #66 / West Des Moines,5308 UNIVERSITY AVE,WEST DES MOINES,50266,POINT (-93.778685 41.60046),77,Polk
4427,Kum & Go #507 / North Liberty,610 N KANSAS AVE,NORTH LIBERTY,52317,POINT (-91.636982 41.752948),52,Johnson
4869,Lindsanator's,415 S HWY 52,GUTTENBERG,52052,POINT (-91.100476 42.782533),22,Clayton
4500,Casey's General Store #2788 / North,595 N KANSAS AVE,NORTH LIBERTY,52317,POINT (-91.636952 41.751925),52,Johnson
4853,Kum & Go #62 / Johnston,6130 NW 86TH ST,JOHNSTON,50131,POINT (-93.736534 41.67184),77,Polk
4403,KUM & GO #4098 / WINDSOR HEIGHTS,7229 Universty Ave,Windsor Heights,50311,,77,Polk
4294,Lena's Liquors,1544 SUPERIOR ST,WEBSTER CITY,50595,POINT (-93.815849 42.46212),40,Hamilton
4007,Brockmans,109 E MAIN ST,OSSIAN,52161,POINT (-91.7643 43.145526000000004),96,Winneshiek
3930,Kuennen's Liquor Store,106 W MAINS ST PO BOX 142,ST LUCAS,52166,,33,Fayette
2161,Huber's Store Inc.,FIRST & MAIN,FT. ATKINSON,52144,,96,Winneshiek
4762,Huber's Store Inc.,101 MAIN ST,FORT ATKINSON,52144,POINT (-91.932448 43.14339),96,Winneshiek
4819,Super Stop 2 / Altoona,2635 ADVENTURELAND DR,ALTOONA,50009,POINT (-93.494642 41.65854),77,Polk
4109,Best Trip,1516 SE 1ST,DES MOINES,50315,POINT (-93.613469 41.57592900000001),77,Polk
3853,Ram Liquor Mart,3108 WEST CENTRAL PARK AVE #2,DAVENPORT,52804,POINT (-90.620282 41.545421),82,Scott
4580,Smokin' Joe's #9 Tobacco and Liquor,304 W. MADISON,WASHINGTON,52353,POINT (-91.694639 41.296493),92,Washington
4694,Rina Mart LLC / Davenport,"3815, WEST KIMBERLY RD",DAVENPORT,52806,POINT (-90.631357 41.561712),82,Scott
4926,GS Super Stop,4923 MERLE HAY RD,DES MOINES,50322,POINT (-93.697356 41.649339),77,Polk
4080,Five Corners Liquor and Win,809 EAST 18 ST,CEDAR FALLS,50613,POINT (-92.436845 42.5214),07,Black Hawk
3964,Sioux Food Center of Sioux Rapids,621 HWY 71,SIOUX RAPIDS,50585,POINT (-95.152677 42.888845),11,Buena Vista
4584,J & C Grocery / Dumont,611 MAIN ST,DUMONT,50602,POINT (-92.973022 42.750551),12,Butler
4808,CB Quick Stop / Council Bluffs,"3500, AVE A",COUNCIL BLUFFS,51501,POINT (-95.90271 41.26282),78,Pottawattamie
4872,Casey's General Store #2644 / Earlha,975 N CHESTNUT AVE,EARLHAM,50072,POINT (-94.123159 41.500191),61,Madison
4860,Jims Foods,812 6TH ST SW,CEDAR RAPIDS,52404,POINT (-91.67707300000001 41.968016000000006),57,Linn
4632,Nat Food Mart / 2nd Ave DM,1443 2nd AVE,DES MOINES,50314,POINT (-93.619783 41.605229),77,Polk
3760,Brady Mart / Davenport,3107 N BRADY ST,DAVENPORT,52803,,82,Scott
3918,Smokin' Joe's #1 Tobacco and Liquor,3120 ROCKINGHAM RD,DAVENPORT,52802,POINT (-90.621541 41.510082),82,Scott
3725,Armstrong Liquor Store,101  6TH ST,ARMSTRONG,50514,POINT (-94.480204 43.39966),32,Emmet
4634,Kwik Shop #565 / Cedar Rapids,"4201, CENTER POINT RD NE",CEDAR RAPIDS,52402,POINT (-91.665659 42.021931),57,Linn
4524,Casey's General Store #1139 / Nora S,14 E CONGRESS,NORA SPRINGS,50458,POINT (-93.005225 43.142731),34,Floyd
4955,Cenex Ampride,504 1st ST SW,MASON CITY,50401,POINT (-93.20893 43.150940000000006),17,Cerro Gordo
4939,Urban Liquor,6401 DOUGLAS AVE   STE 1,URBANDALE,50322,POINT (-93.705732 41.629411),77,Polk
2851,CVS / Pharmacy #10282 / Fort Dodge,2029 5TH AVE SOUTH,FORT DODGE,50501,POINT (-94.170324 42.501169),94,Webster
4326,Stratford Food Center,829 SHAKESPEARE AVE,STRATFORD,50249,POINT (-93.92715 42.271302),40,Hamilton
4883,K & L Foods,"118, S MAIN ST",SIGOURNEY,52591,POINT (-92.205098 41.332944),54,Keokuk
4624,Kwik Shop #568 / Hiawatha,300 E BLAIRS FERRY RD,HIAWATHA,52233,POINT (-91.673066 42.034757),57,Linn
4901,Fareway Stores #137 / Polk City,1101 S 5TH ST,POLK CITY,50226,POINT (-93.719323 41.763876),77,Polk
4757,EZ Mart / Bondurant,1111 SE LINCOLN ST,BONDURANT,50035,POINT (-93.457069 41.692534),77,Polk
4046,J and K Market,113 W VANBUREN,CENTERVILLE,52544,POINT (-92.874795 40.734946),04,Appanoose
4776,The Market on 30 / Carroll,420 WEST HWY 30,CARROLL,51401,,14,Carroll
4848,Kum & Go #246 / Winterset,111 E JEFFERSON ST,WINTERSET,50273,POINT (-94.012692 41.335457),61,Madison
4525,Casey's General Store #2425 / Akron,600 HIGHWAY 12 SOUTH,AKRON,51001,POINT (-96.560848 42.827477),75,Plymouth
4545,FILL R UP,14151 WABASH AVE,COUNCIL BLUFFS,51503,POINT (-95.81790900000001 41.220431),78,Pottawattamie
4547,Fareway Stores #902 / Hampton,309 CENTRAL AVE WEST,HAMPTON,50441,POINT (-93.211676 42.741748),35,Franklin
2152,Dugans Supermarket,202 4TH NORTH,ROCKWELL,50469,POINT (-93.188172 42.986351000000006),17,Cerro Gordo
4029,The Store,204 S MAIN ST,COLESBURG,52035,POINT (-91.368032 42.958986),28,Delaware
4353,Kum & Go #302 / Clear Lake,2905 FOURTH AVE,CLEAR LAKE,50248,POINT (-93.652428 41.475689),17,Cerro Gordo
3642,Fraise Foods / Sonny's Supermarket,327  5TH ST,WEST POINT,52656,POINT (-91.452491 40.717867),56,Lee
4649,Metro Liquor and Tobacco,3418 W BROADWAY,COUNCIL BLUFFS,51501,POINT (-95.900018 41.261929),78,Pottawattamie
3885,Buchanan County Liquor Store,400 EAST FIRST ST,INDEPENDENCE,50644,POINT (-91.890032 42.468741),10,Buchanan
4685,Kwik Stop Food Mart,2360 Central,Dubuque,52001,POINT (-90.672722 42.515773),31,Dubuque
3697,Oky Doky #2 / Dubuque,51 W 32ND ST PO BOX 300,DUBUQUE,52004,POINT (-90.683356 42.52717),31,Dubuque
3648,Fairbank Food Center,102  4TH ST NORTH BOX 434,FAIRBANK,50629,POINT (-92.047352 42.639631),10,Buchanan
3891,"Wild Rose Emmetsburg, Llc",777 MAIN ST,EMMETSBURG,50536,POINT (-94.663246 43.111987),74,Palo Alto
4813,USA Food and Gas / Grand Mound,"2293, HWY 30",GRAND MOUND,52751,POINT (-90.646331 41.828025),23,Clinton
3812,Oasis Liquor / Storm Lake,6087 HWY 110 SOUTH,STORM LAKE,50588,POINT (-95.239503 42.634223),11,Buena Vista
4789,Katy Did's General Store,419 MERRILL ST,BUSSEY,50044,POINT (-92.886643 41.204759),63,Marion
4538,K & S Grocery,402 NORTH MAIN ST,CLARKSVILLE,50619,POINT (-92.667833 42.787434),12,Butler
4330,Ryan's Quick Shop,702 1ST AVE E,NEWTON,50208,POINT (-93.04551500000001 41.69943),50,Jasper
4876,Quick Mart / Hiawatha,"655, ROBBINS RD",HIAWATHA,52233,POINT (-91.672961 42.044452),57,Linn
4896,Barrys Mini Mart,"403, CHESTNUT ST",HARPERS FERRY,52146,POINT (-91.38553 43.050183),03,Allamakee
4644,Kwik Shop #588 / Davenport,"1136, E LOCUST ST",DAVENPORT,52803,POINT (-90.55865800000001 41.538288),82,Scott
3906,Cigarette Outlet #17 / Burlington,412 N ROOSEVELT ST,BURLINGTON,52601,POINT (-91.1414 40.815074),29,Des Moines
4170,Dewey's Jack and Jill,115 E MAIN ST  PO BOX 359,WEST BRANCH,52358,POINT (-91.343394 41.671391),16,Cedar
4174,Cigarette Outlet #3 / Ft Madison,1737  AVE H,FORT MADISON,52627,POINT (-91.32982400000002 40.63021),56,Lee
4101,Lucky Stop Inc.,301 WATER ST  PO BOX 166,CAMBRIDGE,50046,POINT (-93.529231 41.899481),85,Story
4815,ROCSTOP,1310 W SHERIDAN AVE,SHENANDOAH,51601,POINT (-95.38464 40.765869),73,Page
4960,AJ's Liquor III,2401 A CHAMBERLAIN ST,AMES,50010,POINT (-93.648959 42.021456),85,Story
4026,Marshall Discount Liquor,810 W 7 ST,SIOUX CITY,51103,POINT (-96.417767 42.502885),97,Woodbury
4889,Fast Trip / Des Moines,1516 SE  1st ST,DES MOINES,50315,POINT (-93.613469 41.57592900000001),77,Polk
4633,Kwik Shop #520 / Carter Lake,1202 EAST LOCUST ST,CARTER LAKE,51510,,78,Pottawattamie
4059,Belle Plaine Country Food,1206 7TH AVE,BELLE PLAINE,52208,POINT (-92.278167 41.896632),06,Benton
4452,Select Mart    Gordon Dr,2825 GORDON DR,SIOUX CITY,51105,POINT (-96.372014 42.489632),97,Woodbury
3864,Hometown Foods / Schaller,201 S MAIN ST PO BX 40,SCHALLER,51053,POINT (-95.29346 42.499481),81,Sac
4134,Pleasantville Grocery,105 W MONROE ST,PLEASANTVILLE,50225,POINT (-93.269702 41.386718),63,Marion
4487,Casey's General Store #2787 / Cedar,1661 32ND ST NE,CEDAR RAPIDS,52402,POINT (-91.662119 42.010447),57,Linn
4945,Osage Liquors,"508, MAIN ST",OSAGE,50461,POINT (-92.814028 43.284116),66,Mitchell
4550,NEW STAR 3 / Waterloo,1459 ANSBOROUGH AVE,WATERLOO,50701,POINT (-92.376863 42.493091),07,Black Hawk
4639,Liquor & Tobacco Outlet / Fort Dodge,902 1st AVE N,FORT DODGE,50501,POINT (-94.186138 42.506332),94,Webster
4865,Rolfe Area Market,412 GARFIELD ST,ROLFE,50581,POINT (-94.52788900000002 42.814369),76,Pocahontas
4892,Sara Mini Mart,1026 W RIVER DR,DAVENPORT,52802,POINT (-90.588375 41.520158),82,Scott
4899,Graettinger Market,"124, W ROBINS ST",GRAETTINGER,51342,POINT (-94.750949 43.237678),74,Palo Alto
4477,Bucky's Express #17 / Council Bluffs,1759 MADISON AVE,COUNCIL BLUFFS,51503,POINT (-95.824952 41.242658),78,Pottawattamie
4626,Kwik Shop #527 / Council Bluffs,"3632, AVENUE G",COUNCIL BLUFFS,51501,POINT (-95.90597 41.26363),78,Pottawattamie
2847,CVS Pharmacy #10032 / Marion,"3499, 7th AVE",MARION,52302,POINT (-91.57430300000001 42.035914),57,Linn
4937,ROCSTOP,1310 W SHERIDAN AVE,SHENANDOAH,51601,POINT (-95.38464 40.765869),73,Page
4213,Sunny's Mart,630 N 3RD ST,CLINTON,52732,POINT (-90.189909 41.850694000000004),23,Clinton
4902,Broadway Liquor,821 BROADWAY ST,WATERLOO,50703,POINT (-92.345144 42.513772),07,Black Hawk
4871,Donahue's One Stop,125 W JEFFERSON AVE,HARPERS FERRY,52146,POINT (-91.155186 43.203808),03,Allamakee
4329,Super Stop Ii / Altoona,2635 ADVENTURELAND DR,ALTOONA,50009,POINT (-93.494642 41.65854),77,Polk
4870,Tobacco 4 Less / Bettendorf,1032 STATE ST,BETTENDORF,52722,POINT (-90.518562 41.5251),82,Scott
4302,Shop N Save / Des Moines,1829 6TH AVE,DES MOINES,50314,POINT (-93.625814 41.611018),77,Polk
4686,Sunny's Mart / Clinton,630 N 3rd ST,CLINTON,52732,POINT (-90.189909 41.850694000000004),23,Clinton
4766,Keywest Conoco / Dubuque,2150 TWIN VALLEY DR,DUBUQUE,52003,POINT (-90.674579 42.459905),31,Dubuque
4809,Abby Lea's,"123, MADISON ST",NASHUA,50658,POINT (-92.53714100000002 42.951721),19,Chickasaw
3852,Clark Of Cedar Rapids,502 E AVE NW,CEDAR RAPIDS,52405,POINT (-91.680323 41.977958),57,Linn
4511,Super Quick / SE 30 DM,303 SE 30TH ST,DES MOINES,50317,POINT (-93.558326 41.585264),77,Polk
2422,Marriott Corp.,700 GRAND AVENUE,DES MOINES,50309,POINT (-93.626508 41.587503),77,Polk
4851,Southside Liquor & Tobacco Outlet /,3200 16th AVE SW,CEDAR RAPIDS,52404,POINT (-91.714299 41.963507),57,Linn
4323,Liquor And Tobacco Outlet,902  1ST AVE N,FORT DODGE,50501,POINT (-94.186138 42.506332),94,Webster
4763,Parktown BP / Cedar Rapids,4141 CENTER POINT RD NE,CEDAR RAPIDS,52402,POINT (-91.665352 42.021302),57,Linn
2850,CVS / Pharmacy #10161 / Des Moines,215 E EUCLID AVE,DES MOINES,50313,POINT (-93.615656 41.627686),77,Polk
4918,Northwest Petroleum,6087 HWY 110 S,STORM LAKE,50588,POINT (-95.239503 42.634223),11,Buena Vista
4898,Burlington Shell,"130, S ROOSEVELT AVE",BURLINGTON,52601,POINT (-91.140986 40.808239),29,Des Moines
4638,GD Xpress / Davenport,4607 N PINE ST,DAVENPORT,52804,,82,Scott
4823,Casey's General Store #3223 / Cresto,903 N SUMNER AVE,CRESTON,50801,POINT (-94.372568 41.066824),88,Union
3596,Laddy's Bar And Grill,204 MAIN ST,CHESTER,52134,POINT (-92.361168 43.491139),45,Howard
4676,Sam's Mini Mart / Sioux City,711 GORDON DR,SIOUX CITY,51101,POINT (-96.401114 42.489817),97,Woodbury
3677,Barb's Service,1290 HWY 18,EVERLY,51338,POINT (-95.329171 43.183718),21,Clay
4936,Pickle Barrel Market,2 N  EYBERG ST,TREYNOR,51575,POINT (-95.61301 41.232917),78,Pottawattamie
4885,SNK Gas & Food LLC,"18820, BELLEVUE CASCADE RD",ZWINGLE,52079,POINT (-90.676817 42.240381),49,Jackson
4833,Crazy Mary's Licker,1804 135th AVE,MURRAY,50174,POINT (-93.946973 41.036567),20,Clarke
3534,A. V. Liquor,207 S HILLTOP AVE,ALTA VISTA,50603,POINT (-92.411781 43.196371),19,Chickasaw
4886,Yr Dollar Stop,1500 1st AVE NE,CEDAR RAPIDS,52402,POINT (-91.652082 41.988229),57,Linn
4424,CIRCLE K #6601 / BURLINGTON,1012 MAPLE ST,BURLINGTON,52601,POINT (-91.112268 40.80456),29,Des Moines
4894,Discount Tobacco and More / Davenpor,828 W RIVER DR,DAVENPORT,52802,POINT (-90.585656 41.520238),82,Scott
4532,Casey's General Store #2274 / Sioux,720 HWY 71,SIOUX RAPIDS,50585,POINT (-95.152943 42.88744),11,Buena Vista
4429,Kum & Go #32 / Colfax,1200 N WALNUT ST,COLFAX,50054,POINT (-93.247234 41.686844),50,Jasper
4555,Casey's General Store #2614 / Donnel,201 MADISON AVE,DONNELLSON,52625,POINT (-91.560169 40.639013),56,Lee
4210,Sichanh Liquor Store,812 FLINDT DR,STORM LAKE,50588,POINT (-95.189032 42.645707),11,Buena Vista
4591,Casey's General Store #3052 / Clario,"222, CENTRAL AVE",CLARION,50525,POINT (-94.194823 42.504085),99,Wright
4467,Kum & Go #438 / Muscatine,1010 PARK AVE,MUSCATINE,52761,POINT (-91.030816 41.435925),70,Muscatine
4358,Kum & Go #553 / Clarion,300 CENTRAL AVE W,CLARION,50525,POINT (-93.73592500000001 42.731643),99,Wright
3569,Katy Did General Store,419 MERRILL ST,BUSSEY,50044,POINT (-92.886643 41.204759),63,Marion
4641,Kum & Go #573 / SE 14th DM,5830 SE 14th ST,DES MOINES,50315,,77,Polk
4919,Kum & Go #4084 / Altoona,101 8TH ST SW,ALTOONA,50009,POINT (-93.464905 41.64404),77,Polk
4758,Midtown / Storm Lake,1100 EAST 5TH ST,STORM LAKE,50588,POINT (-95.186938 42.644563),11,Buena Vista
4660,Hill Brothers Jiffy Mart / Cedar Rap,"1904, MT VERNON RD SE",CEDAR RAPIDS,52403,POINT (-91.642561 41.977226),57,Linn
4705,Walgreens #05977 / Coralville,102 SECOND ST,CORALVILLE,52241,POINT (-91.566343 41.669266),52,Johnson
4420,KUM & GO #38 / OTTUMWA,534 CHURCH ST,OTTUMWA,52501,POINT (-92.418553 41.009435),90,Wapello
4412,Kum & Go #267 / Tipton,2050 IA HIGHWAY 38,TIPTON,52772,POINT (-91.115934 41.647175),16,Cedar
4912,Casey's General Store #2531 / Eldrid,"840, E LE CLAIRE RD",ELDRIDGE,52748,POINT (-90.572547 41.654692),82,Scott
4751,Walgreens #03595 / Davenport,1720 W KIMBERLY RD,DAVENPORT,52806,POINT (-90.60138 41.560071),82,Scott
4675,Kum & Go #113 / Ames,2801 E 13TH ST,AMES,50010,POINT (-93.575702 42.034562),85,Story
4431,Kum & Go #89 / Fort Dodge,115 N 22ND ST,FORT DODGE,50501,POINT (-94.168007 42.507885),94,Webster
4369,Kum & Go #28 / Norwalk,2992 SUNSET DR,NORWALK,50211,POINT (-93.67405100000002 41.494857),91,Warren
4750,Walgreens #04041 / Davenport,1525 E KIMBERLY,DAVENPORT,52807,POINT (-90.552365 41.556786),82,Scott
4746,Walgreens #05885 / Muscatine,1703 PARK AVE,MUSCATINE,52761,POINT (-91.030382 41.44464),70,Muscatine
4440,Kum & Go #219  Council Bluffs,154 BENNETT AVE,COUNCIL BLUFFS,51503,POINT (-95.820329 41.252794),78,Pottawattamie
4361,Quik Trip #538 / NW 2nd / DSM,4575 NW 2ND,DES MOINES,50313,POINT (-93.619906 41.643664),77,Polk
4372,Kum & Go #404 / Mason City,1303 4TH ST SW,MASON CITY,50401,POINT (-93.221539 43.14833900000001),17,Cerro Gordo
4352,Kum & Go #501 / Creston,301 W TAYLOR ST,CRESTON,50801,POINT (-94.364142 41.049199),88,Union
4282,Point Liquor and Tobacco /,4107 CENTER POINT RD,CEDAR RAPIDS,52402,,57,Linn
4475,Bucky's Express #27 / Council Bluffs,2713 S 24TH ST,COUNCIL BLUFFS,51501,POINT (-95.879147 41.234536000000006),78,Pottawattamie
4383,Kum & Go #500 / Creston,903 N SUMMER AVE,CRESTON,50801,POINT (-94.372568 41.066824),88,Union
4928,Shop n Save / 6th Ave,1829 6TH AVE,DES MOINES,50314,POINT (-93.625814 41.611018),77,Polk
4944,Jiffy Express / Martensdale,"290, HWY 28",MARTENSDALE,50160,POINT (-93.737459 41.373366),91,Warren
4491,Casey's General Store #2772 / Cedar,3349 MT VERNON RD SE,CEDAR RAPIDS,52403,POINT (-91.619027 41.976807),57,Linn
4476,Bucky's Express #16 / Council Bluffs,15 NORTH 16TH ST,COUNCIL BLUFFS,51501,POINT (-95.867464 41.262352),78,Pottawattamie
4966,Midtown,1100 E 5TH ST,STORM LAKE,50588,POINT (-95.186938 42.644563),11,Buena Vista
4916,Perez Grocery,505 E VINE AVE,OTTUMWA,52501,POINT (-92.418262 41.004877),90,Wapello
4854,Casey's General Store #3029 / Armstr,"307, S 4TH AVE",ARMSTRONG,50514,POINT (-94.483108 43.39274),32,Emmet
4468,CIRCLE K #6600 / MUSCATINE,802 CYPRESS ST,MUSCATINE,52761,POINT (-91.041149 41.431606),70,Muscatine
4474,Bucky's Express #34 / Council Bluffs,3501 W BROADWAY ST,COUNCIL BLUFFS,51501,POINT (-95.902733 41.26191600000001),78,Pottawattamie
4837,Kum & Go #51 / Iowa City,323 E BURLINGTON ST,IOWA CITY,52240,POINT (-91.530633 41.657837),52,Johnson
4394,KUM & GO #606 / HARLAN,702 CHATBURN AVE,HARLAN,51537,POINT (-95.319319 41.645392),83,Shelby
4637,Kwik Shop #560 / Cedar Rapids,3301 J ST,CEDAR RAPIDS,52404,POINT (-91.666812 41.944676),57,Linn
4459,Kum & Go #544 / Eagle Grove,1120 S COMMERCIAL,EAGLE GROVE,50533,POINT (-93.9044 42.653973),99,Wright
3710,New York Dollar Store,219 MAIN ST,COLUMBUS JUNCTION,52738,POINT (-91.360496 41.279559),58,Louisa
4922,Vinos y Licores el Aguaje,101 W MAIN ST,MARSHALLTOWN,50158,POINT (-92.91480200000001 42.049174),64,Marshall
4415,KUM & GO #513 / ACKLEY,420 SHERMAN ST,ACKLEY,50601,POINT (-93.056656 42.556727),42,Hardin
4645,Kwik Shop #589 / Eldridge,"1, GROVE RD",ELDRIDGE,52748,POINT (-90.548679 41.694958),82,Scott
4651,Casey's General Store #2300 / Jewell,"301, MAIN ST",JEWELL,50130,POINT (-93.640039 42.302654000000004),40,Hamilton
4388,QUIK TRIP #566 / CLIVE,11925 UNIVERSITY AVE,CLIVE,50325,POINT (-93.782182 41.600513),77,Polk
4671,New Star Mart #1 / Waterloo,9 N ELK RUN RD,WATERLOO,50703,POINT (-92.25887000000002 42.498751),07,Black Hawk
4841,Cozy Mart,2920 W LOCUST ST,DAVENPORT,52804,POINT (-90.619947 41.538161),82,Scott
4041,Mandm Pantry,2344 CAMANCHE AVE,CLINTON,52732,POINT (-90.213015 41.821777),23,Clinton
3882,Kwik Shop #579 / Davenport,2805 TELEGRAPH RD,DAVENPORT,52802,,82,Scott
4884,Tobacco Hut #11 / Sioux City,"4523, MORNINGSIDE AVE",SIOUX CITY,51106,POINT (-96.348659 42.470479),97,Woodbury
4603,Kum & Go #208 / SE 14th DM,3200 SE 14th ST,DES MOINES,50320,POINT (-93.596916 41.555041),77,Polk
4359,Kum & Go #75 / Waukee,350 SE UNIVERSITY AVE,WAUKEE,50263,POINT (-93.865479 41.600403),25,Dallas
4363,Kum & Go #33 / Osceola,400 S MAIN ST,OSCEOLA,50213,POINT (-93.765689 41.030336),20,Clarke
4859,Circle K #6604 / Burlington,421 N MAIN ST,BURLINGTON,52601,POINT (-91.101093 40.811112),29,Des Moines
4416,KUM & GO #83 / CASEY,501 ANTUQUE COUNTRY DR,CASEY,50048,POINT (-94.51928 41.505247),39,Guthrie
4425,Quik Trip #575 / Council Bluffs,1749 W BROADWAY ST,COUNCIL BLUFFS,51501,POINT (-95.870133 41.261858),78,Pottawattamie
4408,KUM & GO #2217 / BOONE,315 STORY ST,BOONE,50036,POINT (-93.879991 42.058784),08,Boone
4435,Kum & Go #220  Council Bluffs,2024 5TH AVE,COUNCIL BLUFFS,51501,POINT (-95.874965 41.25712),78,Pottawattamie
4920,Kum & Go #129 / Johnston,5225 NW 86TH ST,JOHNSTON,50131,POINT (-93.736395 41.655804),77,Polk
4816,Casey's General Store #3232 / Shenan,1303 W SHERIDAN AVE,SHENANDOAH,51601,POINT (-95.383909 40.765871),73,Page
4921,Market Express,5340 16TH AVE SW,CEDAR RAPIDS,52404,POINT (-91.739906 41.963888),57,Linn
4364,Kum & Go #22 / Grinnell,715 LANG CREEK AVE,GRINNELL,50112,POINT (-92.726361 41.699795),79,Poweshiek
4927,Kum & Go #576 / West Des Moines,3501 EP TRUE PKWY,WEST DES MOINES,50265,POINT (-93.752572 41.570151),77,Polk
4445,Kum & Go #196 / WEBSTER CITY,1102 2ND ST,WEBSTER CITY,50595,POINT (-93.831461 42.469524),40,Hamilton
4636,Kwik Shop #561 / Cedar Rapids,2904 CENTER POINT RD NE,CEDAR RAPIDS,52402,POINT (-91.662822 42.007194),57,Linn
4389,KUM & GO #651 / ALBIA,204 S MAIN ST,ALBIA,52531,POINT (-92.807086 41.025034),68,Monroe
4486,Kum & Go #608 / Okoboji,1001 SANBORN AVE,OKOBOJI,51355,POINT (-95.129128 43.382148),30,Dickinson
4826,Casey's General Store #3226 / Albia,204 S MAIN ST,ALBIA,52531,POINT (-92.807086 41.025034),68,Monroe
4688,Walgreens #10770 / Carroll,105 E 6th ST,CARROLL,51401,POINT (-94.86677300000001 42.065531),14,Carroll
4923,Casey's General Store #2270 / Aureli,"100, PEARL ST",AURELIA,51005,POINT (-95.437639 42.712097),18,Cherokee
4605,Kum & Go #509 / Marion,1203 BLAIRS FERRY RD,MARION,52302,POINT (-91.624929 42.03243700000001),57,Linn
4387,KUM & GO #117 / SPIRIT LAKE,300 18TH ST,SPIRIT LAKE,51360,POINT (-95.094324 43.422645),30,Dickinson
4778,Casey's General Store #3030 / Storm,825 FUNDT DR,STORM LAKE,50588,POINT (-95.190566 42.646522),11,Buena Vista
4401,KUM & GO #503 / MARION,3215 7TH AVE,MARION,52302,POINT (-91.577321 42.035013),57,Linn
4454,Kum & Go #248 / Sioux City,2026 RIVERSIDE BLVD,SIOUX CITY,51109,POINT (-96.474603 42.51496),97,Woodbury
4689,Walgreens #11759 / Fort Madison,2639 AVENUE L,FORT MADISON,52627,POINT (-91.344306 40.626968),56,Lee
4780,Casey's General Store #3043 / Britt,"576, N MAIN AVE",BRITT,50423,POINT (-93.802043 43.102653),41,Hancock
4513,Casey's General Store #1144 / Polk C,1100 S 3RD ST,POLK CITY,50226,POINT (-93.717068 41.764009),77,Polk
4740,Walgreens #04405 / Council Bluffs,2508 W BROADWAY,COUNCIL BLUFFS,51501,POINT (-95.882665 41.26194),78,Pottawattamie
4499,Casey's General Store #1316 / Milfor,510 OKOBOJI AVE,MILFORD,51351,POINT (-95.149937 43.320094),30,Dickinson
4950,Kum & Go #514 / Cedar Rapids,1420 MT VERNON RD,CEDAR RAPIDS,52403,POINT (-91.651424 41.97769),57,Linn
4799,Walgreens #05777 / Des Moines,2930 E UNIVERSITY AVE,DES MOINES,50317,POINT (-93.559285 41.600575),77,Polk
4727,Walgreens #07996 / Ankeny,2702 SE DELAWARE AVE,ANKENY,50021,POINT (-93.581219 41.702333),77,Polk
4933,River Mart,2107 AGENCY ST,BURLINGTON,52601,POINT (-91.129659 40.814541),29,Des Moines
4718,Walgreens #06623 / West Des Moines,1660 22ND ST,WEST DES MOINES,50266,POINT (-93.736117 41.597473),77,Polk
4822,Casey's General Store #3214 / Oskalo,413 A AVE W,OSKALOOSA,52577,POINT (-92.648951 41.296226),62,Mahaska
4821,Casey's General Store #3215 / Oskalo,901 S MARKET ST,OSKALOOSA,52577,POINT (-92.645075 41.287632),62,Mahaska
4745,Walgreens #05042 / Cedar Rapids,3325 16TH AVE SW,CEDAR RAPIDS,52404,POINT (-91.715363 41.963477),57,Linn
3845,Otho Convenience and Food,210 NORTH HWY,OTHO,50569,POINT (-94.150427 42.422303),94,Webster
4755,Walgreens #05941 / Mason City,1251 4th ST SW,MASON CITY,50401,POINT (-93.220422 43.148333),17,Cerro Gordo
4515,Casey's General Store #1588 / Dows,2721 DOWS WILLIAMS RD,DOWS,50071,POINT (-93.508976 42.655628),99,Wright
4508,Casey's General Store #2877 / Spence,805 GRAND AVE S,SPENCER,51301,POINT (-95.143866 43.12977),21,Clay
4882,Casey's General Store #3026 / St Cha,"209, E MAIN ST",ST CHARLES,50240,POINT (-93.803774 41.288487),61,Madison
4765,Kwik Stop C-Stores / Dubuque,2335 UNIVERSITY AVE,DUBUQUE,52001,POINT (-90.69685800000002 42.499518),31,Dubuque
4952,Sub Express & Gas,4307 W LOCUST ST,DAVENPORT,52804,POINT (-90.637353 41.538148),82,Scott
4529,Casey's General Store #3262 / Buffal,101 1st ST NE,BUFFALO CENTER,50424,POINT (-93.917424 43.484108),95,Winnebago
4934,Casey's General Store #2811 / Spring,"605, 6th ST S",SPRINGVILLE,52336,POINT (-91.443745 42.050954),57,Linn
4938,Pronto Market,201 S MAIN ST,HAZLETON,50641,POINT (-91.905522 42.615596),10,Buchanan
4915,Casey's General Store #2429 / Betten,"3902, STATE ST",BETTENDORF,52722,POINT (-90.47859 41.53064),82,Scott
2260,"Spirits And Ale, Inc.",509 FIRST AVE,PERRY,50220,POINT (-94.106557 41.832248),25,Dallas
4413,KUM & GO #439 / WAPELLO,303 US HWY 61 N,WAPELLO,52653,POINT (-91.195261 41.181263),58,Louisa
4931,Hudson Gas Mart,230 WATERLOO RD,HUDSON,50643,POINT (-92.45223 42.408221),07,Black Hawk
4570,Cargo Express,"1804, HWY BLVD",SPENCER,51301,POINT (-95.146545 43.156079),21,Clay
4680,Afal Food & Liquor / Des Moines,4121 SE 14TH ST,DES MOINES,50320,POINT (-93.596755 41.5464),77,Polk
4849,C Fresh Market,"801, UNIVERSITY AVE",DES MOINES,50314,POINT (-93.627851 41.600826),77,Polk
4855,Casey's General Store #3200 / Strawb,"308, W MISSION",STRAWBERRY POINT,52076,POINT (-91.539837 42.684496),22,Clayton
3530,Primghar Liquor Store,175  1ST ST SE,PRIMGHAR,51245,POINT (-95.627419 43.086376),71,O'Brien
4610,Casey's General Store #2992 / Fonda,101 HWY 7,FONDA,50540,POINT (-94.846456 42.588969),76,Pocahontas
4941,Kum & Go #170 / Urbandale,6990 DOUGLAS AVE,URBANDALE,50322,POINT (-93.711902 41.629415),77,Polk
4218,Liquor and Tobacco Outlet /,2844 UNIVERSITY AVE,WATERLOO,50701,POINT (-92.382928 42.498321),07,Black Hawk
4390,KUM & GO #233 / CLARINDA,1400 E WASHINGTON ST,CLARINDA,51632,POINT (-95.019407 40.739257),73,Page
4618,Hawkeye Convenience Stores East,"1581, 1st AVE SE",CEDAR RAPIDS,52403,,57,Linn
4954,Casey's General Store #3244 / Urband,"3750, 111TH ST",URBANDALE,50322,POINT (-93.771388 41.628674),77,Polk
4115,Forest Market Convenience,2105 FOREST,DES MOINES,50311,POINT (-93.645606 41.604077),77,Polk
4832,Casey's General Store #2491 / Clarin,1107 S 16 ST,CLARINDA,51632,POINT (-95.03782 40.727464),73,Page
4682,Pleasantville Alcohol & Tobacco,906 N HIGHWAY 5,PLEASANTVILLE,50225,POINT (-93.280738 41.385696),63,Marion
4949,River Drive Smoke Shop,"828, W RIVER DR",DAVENPORT,52802,POINT (-90.585656 41.520238),82,Scott
4693,Hawkeye Convenience Stores / 16th St,250 16th AVE SW,CEDAR RAPIDS,52404,POINT (-91.667665 41.961645),57,Linn
4929,Casey's General Store #1680 / Adel,"816, GREENE ST",ADEL,50003,POINT (-94.018348 41.614408),25,Dallas
4903,Honey Creek Resort State Park,"12633, RESORT DR",MORAVIA,52571,POINT (-92.918723 40.87046),04,Appanoose
4946,Byron Supermarket,306 BYRON AVE,WATERLOO,50702,POINT (-92.353141 42.480288),07,Black Hawk
4951,New Star Mart (Amoco),4141 CENTER POINT RD NE,CEDAR RAPIDS,52402,POINT (-91.665352 42.021302),57,Linn
4333,Liquorama,1117 EAST 4TH,WATERLOO,50703,POINT (-92.332774 42.507683),07,Black Hawk
4784,Hawkeye Convenience Store Wiley Blvd,2330 WILEY BLVD SW,CEDAR RAPIDS,52404,POINT (-91.725833 41.956133),57,Linn
9010,Broadbent Distillery,6175 50TH AVE,NORWALK,50211,POINT (-93.712272 41.436457),91,Warren
9013,Iowa Distilling Company,4349 Cumming Ave.,Cumming,50061,POINT (-93.762456 41.483192),91,Warren
3832,Direct Liquor / Alvord,211 MAIN ST,ALVORD,51230,POINT (-96.301157 43.342837),60,Lyon
4314,Nodaway Valley Market,304  4TH ST,FONTANELLE,50846,POINT (-94.562813 41.289069),01,Adair
4226,Hartig Drug #12 / Waukon,21 W MAIN ST,WAUKON,52172,POINT (-91.476658 43.269279),03,Allamakee
9014,Werner Distilling,5520 190th St.,Holstein,51025,POINT (-95.533015 42.428294),47,Ida
9017,Honey Creek Distillery,"29538, 210th St.",Keosauqua,52565,POINT (-91.806196 40.740052),89,Van Buren
